{
  "type": "FeatureCollection",
  "features": [
    {
      "type": "Feature",
      "properties": {
        "kind": "outlook",
        "hazard": "wind",
        "title": "",
        "description": "",
        "probability": "2",
        "intensity": "",
        "riskLabel": "2%",
        "hazardProbability": "2",
        "hatched": false,
        "doubleHatch": false
      },
      "geometry": {
        "type": "Polygon",
        "coordinates": [
          [
            [
              7.529395,
              47.673877
            ],
            [
              7.56543,
              47.606543
            ],
            [
              7.615625,
              47.592725
            ],
            [
              7.698047,
              47.569873
            ],
            [
              7.927051,
              47.563867
            ],
            [
              8.09375,
              47.576172
            ],
            [
              8.198242,
              47.606934
            ],
            [
              8.327832,
              47.606934
            ],
            [
              8.414746,
              47.5896
            ],
            [
              8.430078,
              47.592139
            ],
            [
              8.454004,
              47.596191
            ],
            [
              8.477637,
              47.612695
            ],
            [
              8.559473,
              47.624023
            ],
            [
              8.570508,
              47.637793
            ],
            [
              8.56709,
              47.651904
            ],
            [
              8.552344,
              47.659131
            ],
            [
              8.451758,
              47.651807
            ],
            [
              8.413281,
              47.662695
            ],
            [
              8.403418,
              47.687793
            ],
            [
              8.435742,
              47.731348
            ],
            [
              8.509863,
              47.766895
            ],
            [
              8.572656,
              47.775635
            ],
            [
              8.617871,
              47.766113
            ],
            [
              8.72832,
              47.700049
            ],
            [
              8.754785,
              47.698047
            ],
            [
              8.770117,
              47.709912
            ],
            [
              8.793066,
              47.716553
            ],
            [
              8.831152,
              47.703613
            ],
            [
              8.874023,
              47.662695
            ],
            [
              8.881152,
              47.656396
            ],
            [
              9.127539,
              47.670703
            ],
            [
              9.182813,
              47.670703
            ],
            [
              9.35,
              47.598926
            ],
            [
              9.524023,
              47.524219
            ],
            [
              9.554395,
              47.511133
            ],
            [
              9.625879,
              47.467041
            ],
            [
              9.609082,
              47.391797
            ],
            [
              9.527539,
              47.270752
            ],
            [
              9.484277,
              47.172656
            ],
            [
              9.479492,
              47.09751
            ],
            [
              9.487695,
              47.062256
            ],
            [
              9.502344,
              47.062744
            ],
            [
              9.580273,
              47.057373
            ],
            [
              9.619922,
              47.057471
            ],
            [
              9.74502,
              47.037109
            ],
            [
              9.845313,
              47.007373
            ],
            [
              9.864648,
              46.975977
            ],
            [
              9.877734,
              46.937695
            ],
            [
              9.996875,
              46.885352
            ],
            [
              10.133496,
              46.851514
            ],
            [
              10.179785,
              46.862354
            ],
            [
              10.349414,
              46.984766
            ],
            [
              10.414941,
              46.964404
            ],
            [
              10.45459,
              46.899414
            ],
            [
              10.452832,
              46.864941
            ],
            [
              10.479395,
              46.855127
            ],
            [
              10.579785,
              46.853711
            ],
            [
              10.689258,
              46.846387
            ],
            [
              10.759766,
              46.793311
            ],
            [
              10.828906,
              46.775244
            ],
            [
              10.927344,
              46.769482
            ],
            [
              10.993262,
              46.777002
            ],
            [
              11.025098,
              46.796973
            ],
            [
              11.063477,
              46.859131
            ],
            [
              11.133887,
              46.936182
            ],
            [
              11.244434,
              46.975684
            ],
            [
              11.433203,
              46.983057
            ],
            [
              11.527539,
              46.997412
            ],
            [
              11.625488,
              46.996582
            ],
            [
              11.699414,
              46.984668
            ],
            [
              11.775684,
              46.986084
            ],
            [
              11.969531,
              47.039697
            ],
            [
              12.169434,
              47.082129
            ],
            [
              12.197168,
              47.075
            ],
            [
              12.20127,
              47.060889
            ],
            [
              12.165527,
              47.028174
            ],
            [
              12.130762,
              46.984766
            ],
            [
              12.154102,
              46.935254
            ],
            [
              12.267969,
              46.835889
            ],
            [
              12.330078,
              46.759814
            ],
            [
              12.388281,
              46.702637
            ],
            [
              12.479199,
              46.67251
            ],
            [
              12.598633,
              46.654102
            ],
            [
              12.699805,
              46.647461
            ],
            [
              12.805566,
              46.625879
            ],
            [
              13.16875,
              46.572656
            ],
            [
              13.351562,
              46.55791
            ],
            [
              13.490039,
              46.555566
            ],
            [
              13.7,
              46.520264
            ],
            [
              13.743945,
              46.514307
            ],
            [
              13.831348,
              46.51123
            ],
            [
              13.928809,
              46.498193
            ],
            [
              14.019629,
              46.482178
            ],
            [
              14.099512,
              46.461914
            ],
            [
              14.267285,
              46.440723
            ],
            [
              14.419922,
              46.42793
            ],
            [
              14.465918,
              46.416113
            ],
            [
              14.503516,
              46.417041
            ],
            [
              14.549805,
              46.399707
            ],
            [
              14.577148,
              46.412939
            ],
            [
              14.596973,
              46.436084
            ],
            [
              14.680176,
              46.463428
            ],
            [
              14.756738,
              46.499121
            ],
            [
              14.810547,
              46.54458
            ],
            [
              14.840625,
              46.580469
            ],
            [
              14.893262,
              46.605908
            ],
            [
              14.949414,
              46.613232
            ],
            [
              15.000684,
              46.625977
            ],
            [
              15.216992,
              46.642969
            ],
            [
              15.439258,
              46.629639
            ],
            [
              15.545313,
              46.654639
            ],
            [
              15.632617,
              46.698437
            ],
            [
              15.743915198470427,
              46.709166837995085
            ],
            [
              16.002834647181075,
              46.820073878438954
            ],
            [
              16.037207,
              46.844824
            ],
            [
              16.093066,
              46.863281
            ],
            [
              16.10297514850195,
              46.86296863464739
            ],
            [
              17.160645,
              47.316017
            ],
            [
              20.280762,
              49.102196
            ],
            [
              23.400879,
              50.659473
            ],
            [
              23.883307910748076,
              51.09068595570599
            ],
            [
              23.863477,
              51.126221
            ],
            [
              23.712207,
              51.265137
            ],
            [
              23.664453,
              51.310059
            ],
            [
              23.657617,
              51.35249
            ],
            [
              23.679688,
              51.394922
            ],
            [
              23.658887,
              51.448975
            ],
            [
              23.605273,
              51.51792
            ],
            [
              23.539648,
              51.618896
            ],
            [
              23.544824,
              51.710254
            ],
            [
              23.581348,
              51.762402
            ],
            [
              23.625684,
              51.809326
            ],
            [
              23.607422,
              51.879785
            ],
            [
              23.651074,
              51.972998
            ],
            [
              23.652441,
              52.040381
            ],
            [
              23.633301,
              52.06958
            ],
            [
              23.597949,
              52.103076
            ],
            [
              23.501172,
              52.140381
            ],
            [
              23.458398,
              52.169531
            ],
            [
              23.327148,
              52.208447
            ],
            [
              23.196973,
              52.256934
            ],
            [
              23.175098,
              52.286621
            ],
            [
              23.18125,
              52.306982
            ],
            [
              23.204102,
              52.337891
            ],
            [
              23.30332,
              52.428369
            ],
            [
              23.410938,
              52.516211
            ],
            [
              23.47959,
              52.551562
            ],
            [
              23.844727,
              52.664209
            ],
            [
              23.90127,
              52.703613
            ],
            [
              23.91543,
              52.770264
            ],
            [
              23.916309,
              52.81875
            ],
            [
              23.909375,
              52.904883
            ],
            [
              23.887109,
              53.027539
            ],
            [
              23.85918,
              53.112109
            ],
            [
              23.789258,
              53.270947
            ],
            [
              23.598926,
              53.599219
            ],
            [
              23.484668,
              53.939795
            ],
            [
              23.477637,
              53.958936
            ],
            [
              23.483008,
              54.005957
            ],
            [
              23.481348,
              54.079004
            ],
            [
              23.453613,
              54.143457
            ],
            [
              23.370117,
              54.200488
            ],
            [
              23.282324,
              54.240332
            ],
            [
              23.170313,
              54.281445
            ],
            [
              23.0875,
              54.299463
            ],
            [
              23.042188,
              54.304199
            ],
            [
              23.031934,
              54.327881
            ],
            [
              23.015527,
              54.34834
            ],
            [
              22.976758,
              54.366357
            ],
            [
              22.893945,
              54.390527
            ],
            [
              22.82373,
              54.395801
            ],
            [
              22.766211,
              54.356787
            ],
            [
              22.731836,
              54.350098
            ],
            [
              22.168457,
              54.359863
            ],
            [
              21.63418,
              54.376465
            ],
            [
              21.140527,
              54.391797
            ],
            [
              20.664746,
              54.406641
            ],
            [
              20.208203,
              54.420752
            ],
            [
              19.924316,
              54.433984
            ],
            [
              19.644238,
              54.44707
            ],
            [
              19.604395,
              54.45918
            ],
            [
              19.560156,
              54.434619
            ],
            [
              19.407129,
              54.386084
            ],
            [
              18.97627,
              54.348926
            ],
            [
              18.836426,
              54.36958
            ],
            [
              18.669629,
              54.430908
            ],
            [
              18.587109,
              54.512891
            ],
            [
              18.43623,
              54.744727
            ],
            [
              18.501563,
              54.741504
            ],
            [
              18.67832,
              54.665283
            ],
            [
              18.799609,
              54.63335
            ],
            [
              18.759277,
              54.68457
            ],
            [
              18.535156,
              54.769434
            ],
            [
              18.323438,
              54.838184
            ],
            [
              18.085645,
              54.83584
            ],
            [
              17.842969,
              54.816699
            ],
            [
              17.261914,
              54.729541
            ],
            [
              17.007031,
              54.651855
            ],
            [
              16.885449,
              54.596387
            ],
            [
              16.559766,
              54.553809
            ],
            [
              16.375586,
              54.436865
            ],
            [
              16.292285,
              54.361621
            ],
            [
              16.239355,
              54.333057
            ],
            [
              16.186328,
              54.290381
            ],
            [
              16.042773,
              54.266357
            ],
            [
              16.01446053663753,
              54.26389763323863
            ],
            [
              15.974121,
              52.462285
            ],
            [
              14.567871,
              50.603724
            ],
            [
              12.32666,
              49.389078
            ],
            [
              9.953613,
              48.639715
            ],
            [
              7.815771440235891,
              48.59011902650365
            ],
            [
              7.794824,
              48.546826
            ],
            [
              7.765137,
              48.41001
            ],
            [
              7.705664,
              48.280029
            ],
            [
              7.616602,
              48.156787
            ],
            [
              7.58418,
              48.064307
            ],
            [
              7.608496,
              48.002588
            ],
            [
              7.593262,
              47.905664
            ],
            [
              7.538574,
              47.773633
            ],
            [
              7.529395,
              47.673877
            ]
          ]
        ]
      }
    },
    {
      "type": "Feature",
      "properties": {
        "kind": "outlook",
        "hazard": "wind",
        "title": "",
        "description": "",
        "probability": "5",
        "intensity": "",
        "riskLabel": "5%",
        "hazardProbability": "5",
        "hatched": false,
        "doubleHatch": false
      },
      "geometry": {
        "type": "Polygon",
        "coordinates": [
          [
            [
              10.480957,
              47.256398
            ],
            [
              11.840237307941013,
              47.003937753210735
            ],
            [
              11.969531,
              47.039697
            ],
            [
              12.169434,
              47.082129
            ],
            [
              12.197168,
              47.075
            ],
            [
              12.20127,
              47.060889
            ],
            [
              12.165527,
              47.028174
            ],
            [
              12.130762,
              46.984766
            ],
            [
              12.148734478526224,
              46.94664032061738
            ],
            [
              12.414551,
              46.89727
            ],
            [
              14.919434,
              47.047201
            ],
            [
              18.259277,
              48.813646
            ],
            [
              21.555176,
              50.464061
            ],
            [
              22.565918,
              51.433036
            ],
            [
              23.33608842881139,
              52.20579613731334
            ],
            [
              23.327148,
              52.208447
            ],
            [
              23.196973,
              52.256934
            ],
            [
              23.175098,
              52.286621
            ],
            [
              23.18125,
              52.306982
            ],
            [
              23.204102,
              52.337891
            ],
            [
              23.30332,
              52.428369
            ],
            [
              23.410938,
              52.516211
            ],
            [
              23.47959,
              52.551562
            ],
            [
              23.769983479975338,
              52.641150166465685
            ],
            [
              23.884277,
              52.755828
            ],
            [
              23.916264833741735,
              52.81631377110554
            ],
            [
              23.916309,
              52.81875
            ],
            [
              23.909375,
              52.904883
            ],
            [
              23.887109,
              53.027539
            ],
            [
              23.85918,
              53.112109
            ],
            [
              23.789258,
              53.270947
            ],
            [
              23.598926,
              53.599219
            ],
            [
              23.484668,
              53.939795
            ],
            [
              23.477637,
              53.958936
            ],
            [
              23.483008,
              54.005957
            ],
            [
              23.481348,
              54.079004
            ],
            [
              23.453613,
              54.143457
            ],
            [
              23.370117,
              54.200488
            ],
            [
              23.282324,
              54.240332
            ],
            [
              23.170313,
              54.281445
            ],
            [
              23.0875,
              54.299463
            ],
            [
              23.042188,
              54.304199
            ],
            [
              23.031934,
              54.327881
            ],
            [
              23.015527,
              54.34834
            ],
            [
              22.976758,
              54.366357
            ],
            [
              22.893945,
              54.390527
            ],
            [
              22.82373,
              54.395801
            ],
            [
              22.766211,
              54.356787
            ],
            [
              22.731836,
              54.350098
            ],
            [
              22.168457,
              54.359863
            ],
            [
              21.63418,
              54.376465
            ],
            [
              21.140527,
              54.391797
            ],
            [
              20.664746,
              54.406641
            ],
            [
              20.208203,
              54.420752
            ],
            [
              19.924316,
              54.433984
            ],
            [
              19.644238,
              54.44707
            ],
            [
              19.604395,
              54.45918
            ],
            [
              19.560156,
              54.434619
            ],
            [
              19.407129,
              54.386084
            ],
            [
              18.97627,
              54.348926
            ],
            [
              18.836426,
              54.36958
            ],
            [
              18.669629,
              54.430908
            ],
            [
              18.587109,
              54.512891
            ],
            [
              18.43623,
              54.744727
            ],
            [
              18.501563,
              54.741504
            ],
            [
              18.67832,
              54.665283
            ],
            [
              18.799609,
              54.63335
            ],
            [
              18.759277,
              54.68457
            ],
            [
              18.535156,
              54.769434
            ],
            [
              18.323438,
              54.838184
            ],
            [
              18.085645,
              54.83584
            ],
            [
              17.842969,
              54.816699
            ],
            [
              17.261914,
              54.729541
            ],
            [
              17.007031,
              54.651855
            ],
            [
              16.885449,
              54.596387
            ],
            [
              16.679006578669366,
              54.56939785590769
            ],
            [
              16.369629,
              54.065433
            ],
            [
              16.281738,
              52.649313
            ],
            [
              15.358887,
              50.964914
            ],
            [
              14.216309,
              49.731137
            ],
            [
              12.502441,
              48.842576
            ],
            [
              10.700684,
              47.967399
            ],
            [
              10.480957,
              47.256398
            ]
          ]
        ]
      }
    },
    {
      "type": "Feature",
      "properties": {
        "kind": "outlook",
        "hazard": "wind",
        "title": "",
        "description": "",
        "probability": "15",
        "intensity": "",
        "riskLabel": "15%",
        "hazardProbability": "15",
        "hatched": false,
        "doubleHatch": false
      },
      "geometry": {
        "type": "Polygon",
        "coordinates": [
          [
            [
              15.095215,
              50.23974
            ],
            [
              15.710449,
              49.901269
            ],
            [
              17.072754,
              49.787914
            ],
            [
              19.313965,
              50.295919
            ],
            [
              22.17041,
              52.085835
            ],
            [
              23.691329895170146,
              53.43984689507128
            ],
            [
              23.598926,
              53.599219
            ],
            [
              23.484668,
              53.939795
            ],
            [
              23.477637,
              53.958936
            ],
            [
              23.483008,
              54.005957
            ],
            [
              23.481348,
              54.079004
            ],
            [
              23.453613,
              54.143457
            ],
            [
              23.370117,
              54.200488
            ],
            [
              23.282324,
              54.240332
            ],
            [
              23.170313,
              54.281445
            ],
            [
              23.0875,
              54.299463
            ],
            [
              23.042188,
              54.304199
            ],
            [
              23.031934,
              54.327881
            ],
            [
              23.015527,
              54.34834
            ],
            [
              22.976758,
              54.366357
            ],
            [
              22.893945,
              54.390527
            ],
            [
              22.82373,
              54.395801
            ],
            [
              22.766211,
              54.356787
            ],
            [
              22.731836,
              54.350098
            ],
            [
              22.168457,
              54.359863
            ],
            [
              21.63418,
              54.376465
            ],
            [
              21.140527,
              54.391797
            ],
            [
              20.664746,
              54.406641
            ],
            [
              20.208203,
              54.420752
            ],
            [
              19.924316,
              54.433984
            ],
            [
              19.644238,
              54.44707
            ],
            [
              19.604395,
              54.45918
            ],
            [
              19.560156,
              54.434619
            ],
            [
              19.407129,
              54.386084
            ],
            [
              18.97627,
              54.348926
            ],
            [
              18.836426,
              54.36958
            ],
            [
              18.669629,
              54.430908
            ],
            [
              18.587109,
              54.512891
            ],
            [
              18.43623,
              54.744727
            ],
            [
              18.501563,
              54.741504
            ],
            [
              18.67832,
              54.665283
            ],
            [
              18.799609,
              54.63335
            ],
            [
              18.759277,
              54.68457
            ],
            [
              18.535156,
              54.769434
            ],
            [
              18.323438,
              54.838184
            ],
            [
              18.085645,
              54.83584
            ],
            [
              17.842969,
              54.816699
            ],
            [
              17.33096859528625,
              54.739899159582066
            ],
            [
              17.160645,
              54.552553
            ],
            [
              16.721191,
              52.941604
            ],
            [
              16.149902,
              51.37821
            ],
            [
              15.095215,
              50.23974
            ]
          ]
        ]
      }
    }
  ]
}