{
  "type": "FeatureCollection",
  "features": [
    {
      "type": "Feature",
      "properties": {
        "kind": "outlook",
        "hazard": "tornado",
        "title": "",
        "description": "",
        "probability": "2",
        "intensity": "",
        "riskLabel": "2%",
        "hazardProbability": "2",
        "hatched": false,
        "doubleHatch": false
      },
      "geometry": {
        "type": "Polygon",
        "coordinates": [
          [
            [
              13.73291,
              51.556155
            ],
            [
              14.655762,
              50.92338
            ],
            [
              17.248535,
              50.729067
            ],
            [
              20.632324,
              51.144464
            ],
            [
              23.48877,
              51.855715
            ],
            [
              23.649686359849923,
              51.970034880296225
            ],
            [
              23.651074,
              51.972998
            ],
            [
              23.652441,
              52.040381
            ],
            [
              23.633301,
              52.06958
            ],
            [
              23.597949,
              52.103076
            ],
            [
              23.501172,
              52.140381
            ],
            [
              23.458398,
              52.169531
            ],
            [
              23.327148,
              52.208447
            ],
            [
              23.196973,
              52.256934
            ],
            [
              23.175098,
              52.286621
            ],
            [
              23.18125,
              52.306982
            ],
            [
              23.204102,
              52.337891
            ],
            [
              23.30332,
              52.428369
            ],
            [
              23.410938,
              52.516211
            ],
            [
              23.47959,
              52.551562
            ],
            [
              23.844727,
              52.664209
            ],
            [
              23.90127,
              52.703613
            ],
            [
              23.91543,
              52.770264
            ],
            [
              23.916309,
              52.81875
            ],
            [
              23.909375,
              52.904883
            ],
            [
              23.887109,
              53.027539
            ],
            [
              23.85918,
              53.112109
            ],
            [
              23.789258,
              53.270947
            ],
            [
              23.598926,
              53.599219
            ],
            [
              23.484668,
              53.939795
            ],
            [
              23.477637,
              53.958936
            ],
            [
              23.483008,
              54.005957
            ],
            [
              23.481348,
              54.079004
            ],
            [
              23.453613,
              54.143457
            ],
            [
              23.370117,
              54.200488
            ],
            [
              23.282324,
              54.240332
            ],
            [
              23.170313,
              54.281445
            ],
            [
              23.0875,
              54.299463
            ],
            [
              23.042188,
              54.304199
            ],
            [
              23.031934,
              54.327881
            ],
            [
              23.015527,
              54.34834
            ],
            [
              22.976758,
              54.366357
            ],
            [
              22.893945,
              54.390527
            ],
            [
              22.82373,
              54.395801
            ],
            [
              22.766211,
              54.356787
            ],
            [
              22.731836,
              54.350098
            ],
            [
              22.168457,
              54.359863
            ],
            [
              21.63418,
              54.376465
            ],
            [
              21.140527,
              54.391797
            ],
            [
              20.664746,
              54.406641
            ],
            [
              20.208203,
              54.420752
            ],
            [
              19.924316,
              54.433984
            ],
            [
              19.644238,
              54.44707
            ],
            [
              19.604395,
              54.45918
            ],
            [
              19.560156,
              54.434619
            ],
            [
              19.407129,
              54.386084
            ],
            [
              18.97627,
              54.348926
            ],
            [
              18.836426,
              54.36958
            ],
            [
              18.669629,
              54.430908
            ],
            [
              18.587109,
              54.512891
            ],
            [
              18.43623,
              54.744727
            ],
            [
              18.501563,
              54.741504
            ],
            [
              18.67832,
              54.665283
            ],
            [
              18.799609,
              54.63335
            ],
            [
              18.759277,
              54.68457
            ],
            [
              18.535156,
              54.769434
            ],
            [
              18.323438,
              54.838184
            ],
            [
              18.085645,
              54.83584
            ],
            [
              17.842969,
              54.816699
            ],
            [
              17.261914,
              54.729541
            ],
            [
              17.007031,
              54.651855
            ],
            [
              16.885449,
              54.596387
            ],
            [
              16.559766,
              54.553809
            ],
            [
              16.375586,
              54.436865
            ],
            [
              16.292285,
              54.361621
            ],
            [
              16.239355,
              54.333057
            ],
            [
              16.186328,
              54.290381
            ],
            [
              16.042773,
              54.266357
            ],
            [
              15.9,
              54.253955
            ],
            [
              15.288379,
              54.139893
            ],
            [
              14.715723,
              54.018311
            ],
            [
              14.589177315833622,
              53.98258356126442
            ],
            [
              14.506692066768759,
              53.83204997602904
            ],
            [
              14.558398,
              53.823193
            ],
            [
              14.564941,
              53.753516
            ],
            [
              14.552148,
              53.707324
            ],
            [
              14.571582,
              53.675879
            ],
            [
              14.583496,
              53.639355
            ],
            [
              14.487598,
              53.671875
            ],
            [
              14.427272412972664,
              53.68711102803996
            ],
            [
              14.040527,
              52.98131
            ],
            [
              13.73291,
              51.556155
            ]
          ]
        ]
      }
    },
    {
      "type": "Feature",
      "properties": {
        "kind": "outlook",
        "hazard": "tornado",
        "title": "",
        "description": "",
        "probability": "5",
        "intensity": "",
        "riskLabel": "5%",
        "hazardProbability": "5",
        "hatched": false,
        "doubleHatch": false
      },
      "geometry": {
        "type": "Polygon",
        "coordinates": [
          [
            [
              17.687988,
              52.848815
            ],
            [
              18.566895,
              52.341632
            ],
            [
              21.203613,
              52.234108
            ],
            [
              23.858408548525677,
              53.113861464307064
            ],
            [
              23.789258,
              53.270947
            ],
            [
              23.598926,
              53.599219
            ],
            [
              23.484668,
              53.939795
            ],
            [
              23.477637,
              53.958936
            ],
            [
              23.483008,
              54.005957
            ],
            [
              23.481348,
              54.079004
            ],
            [
              23.453613,
              54.143457
            ],
            [
              23.370117,
              54.200488
            ],
            [
              23.282324,
              54.240332
            ],
            [
              23.170313,
              54.281445
            ],
            [
              23.0875,
              54.299463
            ],
            [
              23.042188,
              54.304199
            ],
            [
              23.031934,
              54.327881
            ],
            [
              23.015527,
              54.34834
            ],
            [
              22.976758,
              54.366357
            ],
            [
              22.893945,
              54.390527
            ],
            [
              22.82373,
              54.395801
            ],
            [
              22.766211,
              54.356787
            ],
            [
              22.731836,
              54.350098
            ],
            [
              22.168457,
              54.359863
            ],
            [
              21.63418,
              54.376465
            ],
            [
              21.140527,
              54.391797
            ],
            [
              20.664746,
              54.406641
            ],
            [
              20.208203,
              54.420752
            ],
            [
              19.924316,
              54.433984
            ],
            [
              19.644238,
              54.44707
            ],
            [
              19.604395,
              54.45918
            ],
            [
              19.560156,
              54.434619
            ],
            [
              19.407129,
              54.386084
            ],
            [
              18.97627,
              54.348926
            ],
            [
              18.836426,
              54.36958
            ],
            [
              18.779319933223327,
              54.39057678569327
            ],
            [
              18.479004,
              54.258406
            ],
            [
              17.687988,
              52.848815
            ]
          ]
        ]
      }
    }
  ]
}