{
  "type": "FeatureCollection",
  "features": [
    {
      "type": "Feature",
      "properties": {
        "kind": "outlook",
        "hazard": "hail",
        "title": "",
        "description": "",
        "probability": "2",
        "intensity": "",
        "riskLabel": "2%",
        "hazardProbability": "2",
        "hatched": false,
        "doubleHatch": false
      },
      "geometry": {
        "type": "Polygon",
        "coordinates": [
          [
            [
              8.195801,
              47.908518
            ],
            [
              8.26570406465918,
              47.606934
            ],
            [
              8.327832,
              47.606934
            ],
            [
              8.414746,
              47.5896
            ],
            [
              8.430078,
              47.592139
            ],
            [
              8.454004,
              47.596191
            ],
            [
              8.477637,
              47.612695
            ],
            [
              8.559473,
              47.624023
            ],
            [
              8.570508,
              47.637793
            ],
            [
              8.56709,
              47.651904
            ],
            [
              8.552344,
              47.659131
            ],
            [
              8.451758,
              47.651807
            ],
            [
              8.413281,
              47.662695
            ],
            [
              8.403418,
              47.687793
            ],
            [
              8.435742,
              47.731348
            ],
            [
              8.509863,
              47.766895
            ],
            [
              8.572656,
              47.775635
            ],
            [
              8.617871,
              47.766113
            ],
            [
              8.72832,
              47.700049
            ],
            [
              8.754785,
              47.698047
            ],
            [
              8.770117,
              47.709912
            ],
            [
              8.793066,
              47.716553
            ],
            [
              8.831152,
              47.703613
            ],
            [
              8.874023,
              47.662695
            ],
            [
              8.881152,
              47.656396
            ],
            [
              9.127539,
              47.670703
            ],
            [
              9.182813,
              47.670703
            ],
            [
              9.35,
              47.598926
            ],
            [
              9.524023,
              47.524219
            ],
            [
              9.554395,
              47.511133
            ],
            [
              9.625879,
              47.467041
            ],
            [
              9.609082,
              47.391797
            ],
            [
              9.527539,
              47.270752
            ],
            [
              9.484277,
              47.172656
            ],
            [
              9.479492,
              47.09751
            ],
            [
              9.487695,
              47.062256
            ],
            [
              9.502344,
              47.062744
            ],
            [
              9.580273,
              47.057373
            ],
            [
              9.619922,
              47.057471
            ],
            [
              9.74502,
              47.037109
            ],
            [
              9.845313,
              47.007373
            ],
            [
              9.864648,
              46.975977
            ],
            [
              9.877734,
              46.937695
            ],
            [
              9.996875,
              46.885352
            ],
            [
              10.133496,
              46.851514
            ],
            [
              10.179785,
              46.862354
            ],
            [
              10.349414,
              46.984766
            ],
            [
              10.414941,
              46.964404
            ],
            [
              10.45459,
              46.899414
            ],
            [
              10.452832,
              46.864941
            ],
            [
              10.479395,
              46.855127
            ],
            [
              10.579785,
              46.853711
            ],
            [
              10.689258,
              46.846387
            ],
            [
              10.759766,
              46.793311
            ],
            [
              10.828906,
              46.775244
            ],
            [
              10.927344,
              46.769482
            ],
            [
              10.993262,
              46.777002
            ],
            [
              11.025098,
              46.796973
            ],
            [
              11.063477,
              46.859131
            ],
            [
              11.133887,
              46.936182
            ],
            [
              11.244434,
              46.975684
            ],
            [
              11.433203,
              46.983057
            ],
            [
              11.527539,
              46.997412
            ],
            [
              11.625488,
              46.996582
            ],
            [
              11.699414,
              46.984668
            ],
            [
              11.775684,
              46.986084
            ],
            [
              11.969531,
              47.039697
            ],
            [
              12.169434,
              47.082129
            ],
            [
              12.197168,
              47.075
            ],
            [
              12.20127,
              47.060889
            ],
            [
              12.165527,
              47.028174
            ],
            [
              12.130762,
              46.984766
            ],
            [
              12.154102,
              46.935254
            ],
            [
              12.267969,
              46.835889
            ],
            [
              12.330078,
              46.759814
            ],
            [
              12.388281,
              46.702637
            ],
            [
              12.479199,
              46.67251
            ],
            [
              12.598633,
              46.654102
            ],
            [
              12.699805,
              46.647461
            ],
            [
              12.805566,
              46.625879
            ],
            [
              13.16875,
              46.572656
            ],
            [
              13.351562,
              46.55791
            ],
            [
              13.490039,
              46.555566
            ],
            [
              13.7,
              46.520264
            ],
            [
              13.743945,
              46.514307
            ],
            [
              13.831348,
              46.51123
            ],
            [
              13.928809,
              46.498193
            ],
            [
              14.019629,
              46.482178
            ],
            [
              14.099512,
              46.461914
            ],
            [
              14.267285,
              46.440723
            ],
            [
              14.419922,
              46.42793
            ],
            [
              14.465918,
              46.416113
            ],
            [
              14.503516,
              46.417041
            ],
            [
              14.549805,
              46.399707
            ],
            [
              14.577148,
              46.412939
            ],
            [
              14.596973,
              46.436084
            ],
            [
              14.680176,
              46.463428
            ],
            [
              14.756738,
              46.499121
            ],
            [
              14.810547,
              46.54458
            ],
            [
              14.840625,
              46.580469
            ],
            [
              14.893262,
              46.605908
            ],
            [
              14.949414,
              46.613232
            ],
            [
              15.000684,
              46.625977
            ],
            [
              15.216992,
              46.642969
            ],
            [
              15.383416556084041,
              46.63298798926241
            ],
            [
              15.974121,
              46.83718
            ],
            [
              18.083496,
              48.202253
            ],
            [
              21.159668,
              49.731137
            ],
            [
              23.677189582355467,
              51.401414330606215
            ],
            [
              23.658887,
              51.448975
            ],
            [
              23.605273,
              51.51792
            ],
            [
              23.539648,
              51.618896
            ],
            [
              23.544824,
              51.710254
            ],
            [
              23.581348,
              51.762402
            ],
            [
              23.625684,
              51.809326
            ],
            [
              23.607422,
              51.879785
            ],
            [
              23.651074,
              51.972998
            ],
            [
              23.652441,
              52.040381
            ],
            [
              23.633301,
              52.06958
            ],
            [
              23.597949,
              52.103076
            ],
            [
              23.501172,
              52.140381
            ],
            [
              23.458398,
              52.169531
            ],
            [
              23.327148,
              52.208447
            ],
            [
              23.196973,
              52.256934
            ],
            [
              23.175098,
              52.286621
            ],
            [
              23.18125,
              52.306982
            ],
            [
              23.204102,
              52.337891
            ],
            [
              23.30332,
              52.428369
            ],
            [
              23.410938,
              52.516211
            ],
            [
              23.47959,
              52.551562
            ],
            [
              23.844727,
              52.664209
            ],
            [
              23.90127,
              52.703613
            ],
            [
              23.91543,
              52.770264
            ],
            [
              23.916309,
              52.81875
            ],
            [
              23.909375,
              52.904883
            ],
            [
              23.887109,
              53.027539
            ],
            [
              23.85918,
              53.112109
            ],
            [
              23.789258,
              53.270947
            ],
            [
              23.598926,
              53.599219
            ],
            [
              23.484668,
              53.939795
            ],
            [
              23.477637,
              53.958936
            ],
            [
              23.483008,
              54.005957
            ],
            [
              23.481348,
              54.079004
            ],
            [
              23.453613,
              54.143457
            ],
            [
              23.370117,
              54.200488
            ],
            [
              23.282324,
              54.240332
            ],
            [
              23.170313,
              54.281445
            ],
            [
              23.0875,
              54.299463
            ],
            [
              23.042188,
              54.304199
            ],
            [
              23.031934,
              54.327881
            ],
            [
              23.015527,
              54.34834
            ],
            [
              22.976758,
              54.366357
            ],
            [
              22.893945,
              54.390527
            ],
            [
              22.82373,
              54.395801
            ],
            [
              22.766211,
              54.356787
            ],
            [
              22.731836,
              54.350098
            ],
            [
              22.168457,
              54.359863
            ],
            [
              21.63418,
              54.376465
            ],
            [
              21.140527,
              54.391797
            ],
            [
              20.664746,
              54.406641
            ],
            [
              20.208203,
              54.420752
            ],
            [
              19.924316,
              54.433984
            ],
            [
              19.644238,
              54.44707
            ],
            [
              19.604395,
              54.45918
            ],
            [
              19.560156,
              54.434619
            ],
            [
              19.407129,
              54.386084
            ],
            [
              18.97627,
              54.348926
            ],
            [
              18.836426,
              54.36958
            ],
            [
              18.669629,
              54.430908
            ],
            [
              18.587109,
              54.512891
            ],
            [
              18.43623,
              54.744727
            ],
            [
              18.501563,
              54.741504
            ],
            [
              18.67832,
              54.665283
            ],
            [
              18.799609,
              54.63335
            ],
            [
              18.759277,
              54.68457
            ],
            [
              18.535156,
              54.769434
            ],
            [
              18.323438,
              54.838184
            ],
            [
              18.085645,
              54.83584
            ],
            [
              17.842969,
              54.816699
            ],
            [
              17.261914,
              54.729541
            ],
            [
              17.187453595684183,
              54.70684615189448
            ],
            [
              15.79834,
              54.039635
            ],
            [
              15.270996,
              52.462285
            ],
            [
              14.39209,
              50.575824
            ],
            [
              12.810059,
              49.417674
            ],
            [
              10.217285,
              48.726756
            ],
            [
              8.195801,
              47.908518
            ]
          ]
        ]
      }
    },
    {
      "type": "Feature",
      "properties": {
        "kind": "outlook",
        "hazard": "hail",
        "title": "",
        "description": "",
        "probability": "5",
        "intensity": "",
        "riskLabel": "5%",
        "hazardProbability": "5",
        "hatched": false,
        "doubleHatch": false
      },
      "geometry": {
        "type": "MultiPolygon",
        "coordinates": [
          [
            [
              [
                15.88623,
                51.89641
              ],
              [
                16.018066,
                50.380065
              ],
              [
                16.721191,
                48.813646
              ],
              [
                18.435059,
                49.474817
              ],
              [
                20.632324,
                50.323984
              ],
              [
                23.400879,
                51.787807
              ],
              [
                23.652365367414223,
                52.03665287232809
              ],
              [
                23.652441,
                52.040381
              ],
              [
                23.633301,
                52.06958
              ],
              [
                23.597949,
                52.103076
              ],
              [
                23.501172,
                52.140381
              ],
              [
                23.458398,
                52.169531
              ],
              [
                23.327148,
                52.208447
              ],
              [
                23.196973,
                52.256934
              ],
              [
                23.175098,
                52.286621
              ],
              [
                23.18125,
                52.306982
              ],
              [
                23.204102,
                52.337891
              ],
              [
                23.30332,
                52.428369
              ],
              [
                23.410938,
                52.516211
              ],
              [
                23.47959,
                52.551562
              ],
              [
                23.844727,
                52.664209
              ],
              [
                23.90127,
                52.703613
              ],
              [
                23.91543,
                52.770264
              ],
              [
                23.916309,
                52.81875
              ],
              [
                23.909375,
                52.904883
              ],
              [
                23.887109,
                53.027539
              ],
              [
                23.85918,
                53.112109
              ],
              [
                23.789258,
                53.270947
              ],
              [
                23.598926,
                53.599219
              ],
              [
                23.484668,
                53.939795
              ],
              [
                23.477637,
                53.958936
              ],
              [
                23.483008,
                54.005957
              ],
              [
                23.481348,
                54.079004
              ],
              [
                23.453613,
                54.143457
              ],
              [
                23.370117,
                54.200488
              ],
              [
                23.282324,
                54.240332
              ],
              [
                23.170313,
                54.281445
              ],
              [
                23.0875,
                54.299463
              ],
              [
                23.042188,
                54.304199
              ],
              [
                23.031934,
                54.327881
              ],
              [
                23.015527,
                54.34834
              ],
              [
                22.976758,
                54.366357
              ],
              [
                22.893945,
                54.390527
              ],
              [
                22.82373,
                54.395801
              ],
              [
                22.766211,
                54.356787
              ],
              [
                22.731836,
                54.350098
              ],
              [
                22.168457,
                54.359863
              ],
              [
                21.63418,
                54.376465
              ],
              [
                21.140527,
                54.391797
              ],
              [
                20.664746,
                54.406641
              ],
              [
                20.208203,
                54.420752
              ],
              [
                19.924316,
                54.433984
              ],
              [
                19.644238,
                54.44707
              ],
              [
                19.604395,
                54.45918
              ],
              [
                19.560156,
                54.434619
              ],
              [
                19.407129,
                54.386084
              ],
              [
                18.97627,
                54.348926
              ],
              [
                18.836426,
                54.36958
              ],
              [
                18.669629,
                54.430908
              ],
              [
                18.587109,
                54.512891
              ],
              [
                18.571037982628695,
                54.53758522771422
              ],
              [
                16.721191,
                53.624688
              ],
              [
                15.88623,
                51.89641
              ]
            ]
          ],
          [
            [
              [
                18.777099463169698,
                54.63927631681028
              ],
              [
                18.799609,
                54.63335
              ],
              [
                18.789949147239312,
                54.6456176202123
              ],
              [
                18.777099463169698,
                54.63927631681028
              ]
            ]
          ]
        ]
      }
    }
  ]
}