{
  "type": "FeatureCollection",
  "features": [
    {
      "type": "Feature",
      "properties": {
        "kind": "outlook",
        "hazard": "hail",
        "title": "",
        "description": "",
        "probability": "2",
        "intensity": "",
        "riskLabel": "2%",
        "hazardProbability": "2",
        "hatched": false,
        "doubleHatch": false
      },
      "geometry": {
        "type": "Polygon",
        "coordinates": [
          [
            [
              16.831055,
              50.267838
            ],
            [
              17.138672,
              49.446254
            ],
            [
              19.599609,
              48.581604
            ],
            [
              22.266188945089976,
              48.37048278823619
            ],
            [
              22.253711,
              48.407373
            ],
            [
              22.231152,
              48.412158
            ],
            [
              22.227148,
              48.413428
            ],
            [
              22.131836,
              48.405322
            ],
            [
              22.142871,
              48.568506
            ],
            [
              22.295215,
              48.68584
            ],
            [
              22.332617,
              48.745068
            ],
            [
              22.389453,
              48.873486
            ],
            [
              22.432031,
              48.933545
            ],
            [
              22.483203,
              48.983252
            ],
            [
              22.524121,
              49.031396
            ],
            [
              22.538672,
              49.072705
            ],
            [
              22.57998,
              49.077197
            ],
            [
              22.70127,
              49.039941
            ],
            [
              22.809766,
              49.020752
            ],
            [
              22.839746,
              49.038916
            ],
            [
              22.852051,
              49.062744
            ],
            [
              22.84707,
              49.08125
            ],
            [
              22.760156,
              49.13623
            ],
            [
              22.705664,
              49.171191
            ],
            [
              22.702344,
              49.192725
            ],
            [
              22.721973,
              49.240967
            ],
            [
              22.732422,
              49.295166
            ],
            [
              22.719922,
              49.353809
            ],
            [
              22.660645,
              49.483691
            ],
            [
              22.649414,
              49.539014
            ],
            [
              22.706152,
              49.606201
            ],
            [
              22.890723,
              49.76626
            ],
            [
              22.952246,
              49.826367
            ],
            [
              23.036328,
              49.899072
            ],
            [
              23.264453,
              50.072852
            ],
            [
              23.408594,
              50.173926
            ],
            [
              23.506152,
              50.229834
            ],
            [
              23.649023,
              50.327051
            ],
            [
              23.711719,
              50.377344
            ],
            [
              23.972656,
              50.410059
            ],
            [
              24.00498,
              50.457031
            ],
            [
              24.052637,
              50.508447
            ],
            [
              24.089941,
              50.530469
            ],
            [
              24.094727,
              50.617041
            ],
            [
              24.046289,
              50.722803
            ],
            [
              24.007324,
              50.760156
            ],
            [
              23.978418,
              50.785596
            ],
            [
              23.99707,
              50.809375
            ],
            [
              24.025977,
              50.816162
            ],
            [
              24.061621,
              50.819531
            ],
            [
              24.105762,
              50.844971
            ],
            [
              24.095801,
              50.872754
            ],
            [
              23.985742,
              50.94043
            ],
            [
              23.938086,
              50.992529
            ],
            [
              23.863477,
              51.126221
            ],
            [
              23.712207,
              51.265137
            ],
            [
              23.664453,
              51.310059
            ],
            [
              23.657617,
              51.35249
            ],
            [
              23.679688,
              51.394922
            ],
            [
              23.658887,
              51.448975
            ],
            [
              23.605273,
              51.51792
            ],
            [
              23.539648,
              51.618896
            ],
            [
              23.544824,
              51.710254
            ],
            [
              23.581348,
              51.762402
            ],
            [
              23.625684,
              51.809326
            ],
            [
              23.607422,
              51.879785
            ],
            [
              23.651074,
              51.972998
            ],
            [
              23.652441,
              52.040381
            ],
            [
              23.633301,
              52.06958
            ],
            [
              23.597949,
              52.103076
            ],
            [
              23.501172,
              52.140381
            ],
            [
              23.458398,
              52.169531
            ],
            [
              23.327148,
              52.208447
            ],
            [
              23.196973,
              52.256934
            ],
            [
              23.175098,
              52.286621
            ],
            [
              23.18125,
              52.306982
            ],
            [
              23.204102,
              52.337891
            ],
            [
              23.30332,
              52.428369
            ],
            [
              23.410938,
              52.516211
            ],
            [
              23.47959,
              52.551562
            ],
            [
              23.844727,
              52.664209
            ],
            [
              23.90127,
              52.703613
            ],
            [
              23.91543,
              52.770264
            ],
            [
              23.916309,
              52.81875
            ],
            [
              23.909375,
              52.904883
            ],
            [
              23.887109,
              53.027539
            ],
            [
              23.85918,
              53.112109
            ],
            [
              23.789258,
              53.270947
            ],
            [
              23.659420348189904,
              53.49488236365405
            ],
            [
              22.763672,
              53.337023
            ],
            [
              20.083008,
              52.328206
            ],
            [
              17.709961,
              51.37821
            ],
            [
              16.831055,
              50.267838
            ]
          ]
        ]
      }
    },
    {
      "type": "Feature",
      "properties": {
        "kind": "outlook",
        "hazard": "hail",
        "title": "",
        "description": "",
        "probability": "5",
        "intensity": "",
        "riskLabel": "5%",
        "hazardProbability": "5",
        "hatched": false,
        "doubleHatch": false
      },
      "geometry": {
        "type": "Polygon",
        "coordinates": [
          [
            [
              18.94043,
              49.588903
            ],
            [
              19.643555,
              48.95813
            ],
            [
              21.357422,
              48.581604
            ],
            [
              22.25977123395948,
              48.65854152520219
            ],
            [
              22.295215,
              48.68584
            ],
            [
              22.332617,
              48.745068
            ],
            [
              22.389453,
              48.873486
            ],
            [
              22.432031,
              48.933545
            ],
            [
              22.483203,
              48.983252
            ],
            [
              22.524121,
              49.031396
            ],
            [
              22.538672,
              49.072705
            ],
            [
              22.57998,
              49.077197
            ],
            [
              22.70127,
              49.039941
            ],
            [
              22.809766,
              49.020752
            ],
            [
              22.839746,
              49.038916
            ],
            [
              22.852051,
              49.062744
            ],
            [
              22.84707,
              49.08125
            ],
            [
              22.760156,
              49.13623
            ],
            [
              22.705664,
              49.171191
            ],
            [
              22.702344,
              49.192725
            ],
            [
              22.721973,
              49.240967
            ],
            [
              22.732422,
              49.295166
            ],
            [
              22.719922,
              49.353809
            ],
            [
              22.660645,
              49.483691
            ],
            [
              22.649414,
              49.539014
            ],
            [
              22.706152,
              49.606201
            ],
            [
              22.890723,
              49.76626
            ],
            [
              22.952246,
              49.826367
            ],
            [
              23.036328,
              49.899072
            ],
            [
              23.264453,
              50.072852
            ],
            [
              23.408594,
              50.173926
            ],
            [
              23.506152,
              50.229834
            ],
            [
              23.649023,
              50.327051
            ],
            [
              23.711719,
              50.377344
            ],
            [
              23.972656,
              50.410059
            ],
            [
              24.00498,
              50.457031
            ],
            [
              24.052637,
              50.508447
            ],
            [
              24.089941,
              50.530469
            ],
            [
              24.094727,
              50.617041
            ],
            [
              24.046289,
              50.722803
            ],
            [
              24.035167386927398,
              50.7334645068164
            ],
            [
              22.895508,
              50.88181
            ],
            [
              20.742188,
              50.575824
            ],
            [
              19.511719,
              50.295919
            ],
            [
              18.94043,
              49.588903
            ]
          ]
        ]
      }
    }
  ]
}