{
  "type": "FeatureCollection",
  "features": [
    {
      "type": "Feature",
      "properties": {
        "kind": "outlook",
        "hazard": "tornado",
        "title": "",
        "description": "",
        "probability": "marginal",
        "intensity": "",
        "riskLabel": "Marginal Tornado Potential",
        "hazardProbability": "marginal",
        "hatched": false,
        "doubleHatch": false
      },
      "geometry": {
        "type": "Polygon",
        "coordinates": [
          [
            [
              18.830566,
              49.285499
            ],
            [
              19.6875,
              48.824723
            ],
            [
              21.09375,
              48.50546
            ],
            [
              22.13557446001742,
              48.460605811461946
            ],
            [
              22.142871,
              48.568506
            ],
            [
              22.295215,
              48.68584
            ],
            [
              22.332617,
              48.745068
            ],
            [
              22.389453,
              48.873486
            ],
            [
              22.432031,
              48.933545
            ],
            [
              22.483203,
              48.983252
            ],
            [
              22.524121,
              49.031396
            ],
            [
              22.538672,
              49.072705
            ],
            [
              22.57998,
              49.077197
            ],
            [
              22.70127,
              49.039941
            ],
            [
              22.809766,
              49.020752
            ],
            [
              22.839746,
              49.038916
            ],
            [
              22.852051,
              49.062744
            ],
            [
              22.84707,
              49.08125
            ],
            [
              22.760156,
              49.13623
            ],
            [
              22.705664,
              49.171191
            ],
            [
              22.702344,
              49.192725
            ],
            [
              22.721973,
              49.240967
            ],
            [
              22.732422,
              49.295166
            ],
            [
              22.719922,
              49.353809
            ],
            [
              22.660645,
              49.483691
            ],
            [
              22.649414,
              49.539014
            ],
            [
              22.706152,
              49.606201
            ],
            [
              22.890723,
              49.76626
            ],
            [
              22.952246,
              49.826367
            ],
            [
              23.036328,
              49.899072
            ],
            [
              23.264453,
              50.072852
            ],
            [
              23.408594,
              50.173926
            ],
            [
              23.411543208249956,
              50.17561611598063
            ],
            [
              22.851563,
              50.22239
            ],
            [
              21.818848,
              50.22239
            ],
            [
              20.126953,
              50.137965
            ],
            [
              19.160156,
              49.812955
            ],
            [
              18.830566,
              49.285499
            ]
          ]
        ]
      }
    }
  ]
}