{
  "type": "FeatureCollection",
  "features": [
    {
      "type": "Feature",
      "properties": {
        "kind": "outlook",
        "hazard": "wind",
        "title": "",
        "description": "",
        "probability": "2",
        "intensity": "",
        "riskLabel": "2%",
        "hazardProbability": "2",
        "hatched": false,
        "doubleHatch": false
      },
      "geometry": {
        "type": "MultiPolygon",
        "coordinates": [
          [
            [
              [
                5.85752,
                51.030127
              ],
              [
                5.867188,
                51.005664
              ],
              [
                5.894727,
                50.984229
              ],
              [
                5.955078,
                50.972949
              ],
              [
                6.006836,
                50.949951
              ],
              [
                6.048438,
                50.904883
              ],
              [
                5.993945,
                50.750439
              ],
              [
                6.005957,
                50.732227
              ],
              [
                6.119434,
                50.679248
              ],
              [
                6.154492,
                50.637256
              ],
              [
                6.235938,
                50.59668
              ],
              [
                6.168457,
                50.545361
              ],
              [
                6.178711,
                50.52251
              ],
              [
                6.203027,
                50.499121
              ],
              [
                6.294922,
                50.485498
              ],
              [
                6.340918,
                50.451758
              ],
              [
                6.343652,
                50.400244
              ],
              [
                6.364453,
                50.316162
              ],
              [
                6.175098,
                50.232666
              ],
              [
                6.121289,
                50.139355
              ],
              [
                6.116504,
                50.120996
              ],
              [
                6.108301,
                50.094238
              ],
              [
                6.109766,
                50.034375
              ],
              [
                6.138184,
                49.974316
              ],
              [
                6.204883,
                49.915137
              ],
              [
                6.256055,
                49.872168
              ],
              [
                6.324609,
                49.837891
              ],
              [
                6.440918,
                49.805322
              ],
              [
                6.487305,
                49.798486
              ],
              [
                6.49375,
                49.754395
              ],
              [
                6.484766,
                49.707812
              ],
              [
                6.444629,
                49.682031
              ],
              [
                6.406738,
                49.644971
              ],
              [
                6.37832,
                49.599609
              ],
              [
                6.348438,
                49.512695
              ],
              [
                6.344336,
                49.452734
              ],
              [
                6.382227,
                49.458154
              ],
              [
                6.458105,
                49.442871
              ],
              [
                6.534277,
                49.394678
              ],
              [
                6.566309,
                49.346191
              ],
              [
                6.574707,
                49.319678
              ],
              [
                6.607617,
                49.290869
              ],
              [
                6.735449,
                49.160596
              ],
              [
                6.77627,
                49.15415
              ],
              [
                6.820703,
                49.173926
              ],
              [
                6.849512,
                49.201953
              ],
              [
                6.891211,
                49.20752
              ],
              [
                6.958301,
                49.194629
              ],
              [
                7.001465,
                49.179883
              ],
              [
                7.022168,
                49.123437
              ],
              [
                7.036719,
                49.112695
              ],
              [
                7.065723,
                49.124854
              ],
              [
                7.117383,
                49.127539
              ],
              [
                7.199902,
                49.113623
              ],
              [
                7.313379,
                49.129541
              ],
              [
                7.404199,
                49.153076
              ],
              [
                7.450586,
                49.152197
              ],
              [
                7.525488,
                49.086377
              ],
              [
                7.610938,
                49.061768
              ],
              [
                7.799219,
                49.041895
              ],
              [
                8.00127,
                49.010937
              ],
              [
                8.080664,
                48.985889
              ],
              [
                8.134863,
                48.973584
              ],
              [
                8.140332,
                48.886426
              ],
              [
                8.124023,
                48.873291
              ],
              [
                7.922754,
                48.698535
              ],
              [
                7.837988,
                48.636035
              ],
              [
                7.794824,
                48.546826
              ],
              [
                7.765137,
                48.41001
              ],
              [
                7.711704101360504,
                48.293229921677735
              ],
              [
                8.569336,
                48.508872
              ],
              [
                11.777344,
                50.084904
              ],
              [
                15.161133,
                51.719797
              ],
              [
                16.918945,
                53.611655
              ],
              [
                17.052364863366805,
                54.66567234564295
              ],
              [
                17.007031,
                54.651855
              ],
              [
                16.885449,
                54.596387
              ],
              [
                16.559766,
                54.553809
              ],
              [
                16.375586,
                54.436865
              ],
              [
                16.292285,
                54.361621
              ],
              [
                16.239355,
                54.333057
              ],
              [
                16.186328,
                54.290381
              ],
              [
                16.042773,
                54.266357
              ],
              [
                15.9,
                54.253955
              ],
              [
                15.288379,
                54.139893
              ],
              [
                14.715723,
                54.018311
              ],
              [
                14.38418,
                53.924707
              ],
              [
                14.249316,
                53.931934
              ],
              [
                14.211426,
                53.950342
              ],
              [
                14.038867,
                54.03457
              ],
              [
                13.827734,
                54.127246
              ],
              [
                13.82041,
                54.092822
              ],
              [
                13.827148,
                54.05957
              ],
              [
                13.872461,
                54.036279
              ],
              [
                13.92168,
                53.996631
              ],
              [
                13.902148,
                53.938965
              ],
              [
                13.925781,
                53.879053
              ],
              [
                14.04834,
                53.863086
              ],
              [
                14.172168,
                53.874365
              ],
              [
                14.213672,
                53.870752
              ],
              [
                14.350879,
                53.85874
              ],
              [
                14.558398,
                53.823193
              ],
              [
                14.564941,
                53.753516
              ],
              [
                14.552148,
                53.707324
              ],
              [
                14.571582,
                53.675879
              ],
              [
                14.583496,
                53.639355
              ],
              [
                14.487598,
                53.671875
              ],
              [
                14.258887,
                53.729639
              ],
              [
                14.25,
                53.731885
              ],
              [
                14.025,
                53.767432
              ],
              [
                13.950391,
                53.801367
              ],
              [
                13.865527,
                53.853369
              ],
              [
                13.822266,
                54.019043
              ],
              [
                13.724219,
                54.153223
              ],
              [
                13.448047,
                54.140869
              ],
              [
                13.147461,
                54.282715
              ],
              [
                13.028613,
                54.411035
              ],
              [
                12.898047,
                54.422656
              ],
              [
                12.779102,
                54.445703
              ],
              [
                12.575391,
                54.467383
              ],
              [
                12.378516,
                54.347021
              ],
              [
                12.296289,
                54.283789
              ],
              [
                12.168652,
                54.225879
              ],
              [
                12.111328,
                54.168311
              ],
              [
                11.796289,
                54.145459
              ],
              [
                11.700586,
                54.113525
              ],
              [
                11.461133,
                53.964746
              ],
              [
                11.399609,
                53.944629
              ],
              [
                11.104297,
                54.00918
              ],
              [
                10.917773,
                53.995312
              ],
              [
                10.85459,
                54.009814
              ],
              [
                10.810742,
                54.075146
              ],
              [
                11.008594,
                54.181152
              ],
              [
                11.064355,
                54.280518
              ],
              [
                11.013379,
                54.37915
              ],
              [
                10.955957,
                54.375684
              ],
              [
                10.731543,
                54.31626
              ],
              [
                10.360449,
                54.43833
              ],
              [
                10.212402,
                54.408936
              ],
              [
                10.170801,
                54.450195
              ],
              [
                10.143457,
                54.488428
              ],
              [
                9.868652,
                54.472461
              ],
              [
                9.941309,
                54.514648
              ],
              [
                10.028809,
                54.581299
              ],
              [
                10.022168,
                54.673926
              ],
              [
                9.988095409380023,
                54.70600285263606
              ],
              [
                8.9064744887242,
                54.24691072661658
              ],
              [
                8.903516,
                54.000293
              ],
              [
                8.92041,
                53.965332
              ],
              [
                8.978125,
                53.926221
              ],
              [
                9.069629,
                53.900928
              ],
              [
                9.216406,
                53.891211
              ],
              [
                9.312012,
                53.859131
              ],
              [
                9.63125,
                53.600195
              ],
              [
                9.783984,
                53.554639
              ],
              [
                9.673145,
                53.565625
              ],
              [
                9.585352,
                53.600488
              ],
              [
                9.321973,
                53.813477
              ],
              [
                9.205566,
                53.855957
              ],
              [
                8.897754,
                53.835693
              ],
              [
                8.618945,
                53.875
              ],
              [
                8.575586,
                53.838477
              ],
              [
                8.528418,
                53.781104
              ],
              [
                8.50625,
                53.670752
              ],
              [
                8.538477,
                53.556885
              ],
              [
                8.495215,
                53.394238
              ],
              [
                8.492676,
                53.514355
              ],
              [
                8.451367,
                53.551709
              ],
              [
                8.333887,
                53.606201
              ],
              [
                8.301563,
                53.584131
              ],
              [
                8.279004,
                53.511182
              ],
              [
                8.245215,
                53.445312
              ],
              [
                8.200781,
                53.432422
              ],
              [
                8.108496,
                53.467676
              ],
              [
                8.16709,
                53.543408
              ],
              [
                8.009277,
                53.690723
              ],
              [
                7.629199,
                53.697266
              ],
              [
                7.6093470669427825,
                53.6963472395284
              ],
              [
                7.0724213436686405,
                53.46845004643138
              ],
              [
                7.05332,
                53.37583
              ],
              [
                7.152051,
                53.326953
              ],
              [
                7.197266,
                53.282275
              ],
              [
                7.188965,
                53.187207
              ],
              [
                7.189941,
                52.999512
              ],
              [
                7.179492,
                52.966211
              ],
              [
                7.11709,
                52.887012
              ],
              [
                7.050879,
                52.744775
              ],
              [
                7.033008,
                52.651367
              ],
              [
                7.013184,
                52.633545
              ],
              [
                6.748438,
                52.634082
              ],
              [
                6.710742,
                52.617871
              ],
              [
                6.705371,
                52.597656
              ],
              [
                6.71875,
                52.573584
              ],
              [
                6.712402,
                52.549658
              ],
              [
                6.691602,
                52.530176
              ],
              [
                6.70293,
                52.499219
              ],
              [
                6.748828,
                52.464014
              ],
              [
                6.83252,
                52.442285
              ],
              [
                6.92207,
                52.440283
              ],
              [
                6.968164,
                52.444092
              ],
              [
                7.001855,
                52.418994
              ],
              [
                7.035156,
                52.380225
              ],
              [
                7.032617,
                52.331494
              ],
              [
                7.019629,
                52.266016
              ],
              [
                6.977246,
                52.205518
              ],
              [
                6.855078,
                52.135791
              ],
              [
                6.800391,
                52.11123
              ],
              [
                6.749023,
                52.098682
              ],
              [
                6.724512,
                52.080225
              ],
              [
                6.712988,
                52.056885
              ],
              [
                6.715625,
                52.036182
              ],
              [
                6.802441,
                51.980176
              ],
              [
                6.800391,
                51.967383
              ],
              [
                6.775195,
                51.938281
              ],
              [
                6.741797,
                51.910889
              ],
              [
                6.517578,
                51.853955
              ],
              [
                6.425,
                51.858398
              ],
              [
                6.372168,
                51.830029
              ],
              [
                6.355664,
                51.824658
              ],
              [
                6.29707,
                51.850732
              ],
              [
                6.166504,
                51.880762
              ],
              [
                6.117188,
                51.87041
              ],
              [
                6.089844,
                51.853955
              ],
              [
                6.007617,
                51.833984
              ],
              [
                5.94873,
                51.802686
              ],
              [
                5.948535,
                51.762402
              ],
              [
                6.052734,
                51.658252
              ],
              [
                6.089355,
                51.637793
              ],
              [
                6.091113,
                51.598926
              ],
              [
                6.141602,
                51.550098
              ],
              [
                6.193262,
                51.488916
              ],
              [
                6.198828,
                51.45
              ],
              [
                6.192871,
                51.410596
              ],
              [
                6.166211,
                51.354834
              ],
              [
                6.075879,
                51.224121
              ],
              [
                6.074805,
                51.199023
              ],
              [
                6.082422,
                51.17998
              ],
              [
                6.113379,
                51.174707
              ],
              [
                6.136914,
                51.164844
              ],
              [
                6.12998,
                51.147412
              ],
              [
                5.961035,
                51.056689
              ],
              [
                5.939258,
                51.04082
              ],
              [
                5.868359,
                51.045312
              ],
              [
                5.85752,
                51.030127
              ]
            ]
          ],
          [
            [
              [
                11.011719,
                54.466162
              ],
              [
                11.070703,
                54.456006
              ],
              [
                11.129297,
                54.416016
              ],
              [
                11.282813,
                54.417969
              ],
              [
                11.280273,
                54.438379
              ],
              [
                11.233594,
                54.50127
              ],
              [
                11.084961,
                54.533398
              ],
              [
                11.043457,
                54.515479
              ],
              [
                11.011719,
                54.466162
              ]
            ]
          ],
          [
            [
              [
                13.156348,
                54.396924
              ],
              [
                13.162109,
                54.364551
              ],
              [
                13.190039,
                54.325635
              ],
              [
                13.364355,
                54.24585
              ],
              [
                13.414551,
                54.249561
              ],
              [
                13.482031,
                54.337402
              ],
              [
                13.594922,
                54.338184
              ],
              [
                13.707324,
                54.281152
              ],
              [
                13.73418,
                54.31543
              ],
              [
                13.70918,
                54.382715
              ],
              [
                13.601855,
                54.425146
              ],
              [
                13.580469,
                54.463965
              ],
              [
                13.60332,
                54.488184
              ],
              [
                13.670703,
                54.535449
              ],
              [
                13.657617,
                54.55957
              ],
              [
                13.636035,
                54.577002
              ],
              [
                13.491211,
                54.615381
              ],
              [
                13.450098,
                54.649609
              ],
              [
                13.422754,
                54.699316
              ],
              [
                13.336816,
                54.697119
              ],
              [
                13.239941,
                54.638428
              ],
              [
                13.231445,
                54.582764
              ],
              [
                13.17666,
                54.544238
              ],
              [
                13.18125,
                54.508984
              ],
              [
                13.156348,
                54.396924
              ]
            ]
          ]
        ]
      }
    },
    {
      "type": "Feature",
      "properties": {
        "kind": "outlook",
        "hazard": "wind",
        "title": "",
        "description": "",
        "probability": "5",
        "intensity": "",
        "riskLabel": "5%",
        "hazardProbability": "5",
        "hatched": false,
        "doubleHatch": false
      },
      "geometry": {
        "type": "MultiPolygon",
        "coordinates": [
          [
            [
              [
                5.85752,
                51.030127
              ],
              [
                5.867188,
                51.005664
              ],
              [
                5.894727,
                50.984229
              ],
              [
                5.955078,
                50.972949
              ],
              [
                6.006836,
                50.949951
              ],
              [
                6.048438,
                50.904883
              ],
              [
                5.993945,
                50.750439
              ],
              [
                6.005957,
                50.732227
              ],
              [
                6.119434,
                50.679248
              ],
              [
                6.154492,
                50.637256
              ],
              [
                6.235938,
                50.59668
              ],
              [
                6.168457,
                50.545361
              ],
              [
                6.178711,
                50.52251
              ],
              [
                6.203027,
                50.499121
              ],
              [
                6.294922,
                50.485498
              ],
              [
                6.340918,
                50.451758
              ],
              [
                6.343652,
                50.400244
              ],
              [
                6.364453,
                50.316162
              ],
              [
                6.175098,
                50.232666
              ],
              [
                6.121289,
                50.139355
              ],
              [
                6.116504,
                50.120996
              ],
              [
                6.108301,
                50.094238
              ],
              [
                6.109766,
                50.034375
              ],
              [
                6.138184,
                49.974316
              ],
              [
                6.204883,
                49.915137
              ],
              [
                6.256055,
                49.872168
              ],
              [
                6.324609,
                49.837891
              ],
              [
                6.440918,
                49.805322
              ],
              [
                6.487305,
                49.798486
              ],
              [
                6.49375,
                49.754395
              ],
              [
                6.484766,
                49.707812
              ],
              [
                6.444629,
                49.682031
              ],
              [
                6.406738,
                49.644971
              ],
              [
                6.37832,
                49.599609
              ],
              [
                6.348438,
                49.512695
              ],
              [
                6.344336,
                49.452734
              ],
              [
                6.382227,
                49.458154
              ],
              [
                6.458105,
                49.442871
              ],
              [
                6.534277,
                49.394678
              ],
              [
                6.566309,
                49.346191
              ],
              [
                6.574707,
                49.319678
              ],
              [
                6.607617,
                49.290869
              ],
              [
                6.735449,
                49.160596
              ],
              [
                6.77627,
                49.15415
              ],
              [
                6.820703,
                49.173926
              ],
              [
                6.849512,
                49.201953
              ],
              [
                6.891211,
                49.20752
              ],
              [
                6.958301,
                49.194629
              ],
              [
                7.001465,
                49.179883
              ],
              [
                7.022168,
                49.123437
              ],
              [
                7.036719,
                49.112695
              ],
              [
                7.065723,
                49.124854
              ],
              [
                7.117383,
                49.127539
              ],
              [
                7.199902,
                49.113623
              ],
              [
                7.313379,
                49.129541
              ],
              [
                7.404199,
                49.153076
              ],
              [
                7.450586,
                49.152197
              ],
              [
                7.525488,
                49.086377
              ],
              [
                7.610938,
                49.061768
              ],
              [
                7.747842124662504,
                49.04731781294226
              ],
              [
                8.964844,
                49.431966
              ],
              [
                10.415039,
                50.169422
              ],
              [
                12.744141,
                51.391922
              ],
              [
                14.501953,
                52.795704
              ],
              [
                15.502074344934144,
                54.17974532428886
              ],
              [
                15.288379,
                54.139893
              ],
              [
                14.715723,
                54.018311
              ],
              [
                14.38418,
                53.924707
              ],
              [
                14.249316,
                53.931934
              ],
              [
                14.211426,
                53.950342
              ],
              [
                14.038867,
                54.03457
              ],
              [
                13.827734,
                54.127246
              ],
              [
                13.82041,
                54.092822
              ],
              [
                13.827148,
                54.05957
              ],
              [
                13.872461,
                54.036279
              ],
              [
                13.92168,
                53.996631
              ],
              [
                13.902148,
                53.938965
              ],
              [
                13.925781,
                53.879053
              ],
              [
                14.04834,
                53.863086
              ],
              [
                14.172168,
                53.874365
              ],
              [
                14.213672,
                53.870752
              ],
              [
                14.350879,
                53.85874
              ],
              [
                14.558398,
                53.823193
              ],
              [
                14.564941,
                53.753516
              ],
              [
                14.552148,
                53.707324
              ],
              [
                14.571582,
                53.675879
              ],
              [
                14.583496,
                53.639355
              ],
              [
                14.487598,
                53.671875
              ],
              [
                14.258887,
                53.729639
              ],
              [
                14.25,
                53.731885
              ],
              [
                14.025,
                53.767432
              ],
              [
                13.950391,
                53.801367
              ],
              [
                13.865527,
                53.853369
              ],
              [
                13.822266,
                54.019043
              ],
              [
                13.724219,
                54.153223
              ],
              [
                13.448047,
                54.140869
              ],
              [
                13.158040288362765,
                54.27772265259492
              ],
              [
                11.99707,
                54.078326
              ],
              [
                10.063477,
                53.507243
              ],
              [
                8.041992,
                53.00776
              ],
              [
                7.013284965341434,
                52.6336357689828
              ],
              [
                7.013184,
                52.633545
              ],
              [
                7.013036207571699,
                52.63354529977614
              ],
              [
                6.695971866514333,
                52.518234089893696
              ],
              [
                6.70293,
                52.499219
              ],
              [
                6.748828,
                52.464014
              ],
              [
                6.83252,
                52.442285
              ],
              [
                6.92207,
                52.440283
              ],
              [
                6.968164,
                52.444092
              ],
              [
                7.001855,
                52.418994
              ],
              [
                7.035156,
                52.380225
              ],
              [
                7.032617,
                52.331494
              ],
              [
                7.019629,
                52.266016
              ],
              [
                6.977246,
                52.205518
              ],
              [
                6.855078,
                52.135791
              ],
              [
                6.800391,
                52.11123
              ],
              [
                6.749023,
                52.098682
              ],
              [
                6.724512,
                52.080225
              ],
              [
                6.712988,
                52.056885
              ],
              [
                6.715625,
                52.036182
              ],
              [
                6.802441,
                51.980176
              ],
              [
                6.800391,
                51.967383
              ],
              [
                6.775195,
                51.938281
              ],
              [
                6.741797,
                51.910889
              ],
              [
                6.517578,
                51.853955
              ],
              [
                6.425,
                51.858398
              ],
              [
                6.372168,
                51.830029
              ],
              [
                6.355664,
                51.824658
              ],
              [
                6.29707,
                51.850732
              ],
              [
                6.166504,
                51.880762
              ],
              [
                6.117188,
                51.87041
              ],
              [
                6.089844,
                51.853955
              ],
              [
                6.007617,
                51.833984
              ],
              [
                5.94873,
                51.802686
              ],
              [
                5.948535,
                51.762402
              ],
              [
                6.052734,
                51.658252
              ],
              [
                6.089355,
                51.637793
              ],
              [
                6.091113,
                51.598926
              ],
              [
                6.141602,
                51.550098
              ],
              [
                6.193262,
                51.488916
              ],
              [
                6.198828,
                51.45
              ],
              [
                6.192871,
                51.410596
              ],
              [
                6.166211,
                51.354834
              ],
              [
                6.075879,
                51.224121
              ],
              [
                6.074805,
                51.199023
              ],
              [
                6.082422,
                51.17998
              ],
              [
                6.113379,
                51.174707
              ],
              [
                6.136914,
                51.164844
              ],
              [
                6.12998,
                51.147412
              ],
              [
                5.961035,
                51.056689
              ],
              [
                5.939258,
                51.04082
              ],
              [
                5.868359,
                51.045312
              ],
              [
                5.85752,
                51.030127
              ]
            ]
          ],
          [
            [
              [
                13.257425367612134,
                54.2947920404327
              ],
              [
                13.364355,
                54.24585
              ],
              [
                13.414551,
                54.249561
              ],
              [
                13.478461089549544,
                54.332754926735646
              ],
              [
                13.257425367612134,
                54.2947920404327
              ]
            ]
          ],
          [
            [
              [
                13.506505386987742,
                54.337571534955174
              ],
              [
                13.594922,
                54.338184
              ],
              [
                13.707324,
                54.281152
              ],
              [
                13.73418,
                54.31543
              ],
              [
                13.712789346094521,
                54.37300080592121
              ],
              [
                13.506505386987742,
                54.337571534955174
              ]
            ]
          ]
        ]
      }
    },
    {
      "type": "Feature",
      "properties": {
        "kind": "outlook",
        "hazard": "wind",
        "title": "",
        "description": "",
        "probability": "15",
        "intensity": "",
        "riskLabel": "15%",
        "hazardProbability": "15",
        "hatched": false,
        "doubleHatch": false
      },
      "geometry": {
        "type": "Polygon",
        "coordinates": [
          [
            [
              7.646484,
              50.659473
            ],
            [
              7.998047,
              49.986111
            ],
            [
              8.920898,
              49.957847
            ],
            [
              10.50293,
              50.547908
            ],
            [
              12.172852,
              51.569815
            ],
            [
              12.612305,
              52.381887
            ],
            [
              11.99707,
              52.862083
            ],
            [
              10.898438,
              52.729223
            ],
            [
              9.931641,
              52.462285
            ],
            [
              8.129883,
              51.515152
            ],
            [
              7.646484,
              50.659473
            ]
          ]
        ]
      }
    }
  ]
}