{
  "type": "FeatureCollection",
  "features": [
    {
      "type": "Feature",
      "properties": {
        "fid": null,
        "prob": 3,
        "warning": 0,
        "date": "1",
        "kind": "outlook",
        "hazard": "general",
        "title": "",
        "description": "",
        "hatched": false,
        "doubleHatch": false,
        "probability": "<5",
        "intensity": "1",
        "riskLabel": "T-Storm Risk"
      },
      "geometry": {
        "type": "Polygon",
        "coordinates": [
          [
            [
              6.953031055146234,
              49.195641592921596
            ],
            [
              6.958301,
              49.194629
            ],
            [
              6.99469225343534,
              49.18219675500052
            ],
            [
              7.009474,
              49.181702
            ],
            [
              7.009140805430221,
              49.15895518696255
            ],
            [
              7.022168,
              49.123437
            ],
            [
              7.036719,
              49.112695
            ],
            [
              7.065723,
              49.124854
            ],
            [
              7.074777568453378,
              49.1253246062001
            ],
            [
              7.074793,
              49.125375
            ],
            [
              7.071589,
              49.130594
            ],
            [
              7.070762,
              49.136123
            ],
            [
              7.079857,
              49.142014
            ],
            [
              7.085335,
              49.141549
            ],
            [
              7.114968329560335,
              49.127413498836034
            ],
            [
              7.117383,
              49.127539
            ],
            [
              7.196663927281783,
              49.11416906841996
            ],
            [
              7.20350243742353,
              49.11412805179823
            ],
            [
              7.295797995286231,
              49.12707482242187
            ],
            [
              7.297105,
              49.128114
            ],
            [
              7.305993,
              49.130129
            ],
            [
              7.320223310132559,
              49.1313146273835
            ],
            [
              7.334872944106961,
              49.13511091824001
            ],
            [
              7.339066,
              49.139689
            ],
            [
              7.3463,
              49.15421
            ],
            [
              7.350951,
              49.159171
            ],
            [
              7.367591,
              49.165372
            ],
            [
              7.371634,
              49.166174
            ],
            [
              7.391052,
              49.170023
            ],
            [
              7.410483,
              49.168938
            ],
            [
              7.414823,
              49.157776
            ],
            [
              7.458025,
              49.155864
            ],
            [
              7.476112,
              49.151523
            ],
            [
              7.482726,
              49.137054
            ],
            [
              7.475285,
              49.133901
            ],
            [
              7.473386185837195,
              49.132161377028595
            ],
            [
              7.525488,
              49.086377
            ],
            [
              7.5822000189794485,
              49.07004433674587
            ],
            [
              7.586389,
              49.069564
            ],
            [
              7.599873061287327,
              49.06495462465512
            ],
            [
              7.610938,
              49.061768
            ],
            [
              7.761754734825938,
              49.045849341339824
            ],
            [
              7.762606,
              49.046155
            ],
            [
              7.773665,
              49.048118
            ],
            [
              7.835273544695016,
              49.036370768025556
            ],
            [
              7.860503906250789,
              49.03250500377275
            ],
            [
              7.913811,
              49.036181
            ],
            [
              7.931898,
              49.034838
            ],
            [
              7.998986131917298,
              49.011286931394075
            ],
            [
              8.00127,
              49.010937
            ],
            [
              8.080664,
              48.985889
            ],
            [
              8.134863,
              48.973584
            ],
            [
              8.13489302774015,
              48.973105455882994
            ],
            [
              8.18873,
              48.965746
            ],
            [
              8.200305,
              48.958563
            ],
            [
              8.199892,
              48.95825
            ],
            [
              8.179325,
              48.942698
            ],
            [
              8.148112,
              48.903734
            ],
            [
              8.140153170913033,
              48.88927595164782
            ],
            [
              8.140332,
              48.886426
            ],
            [
              8.137192417137353,
              48.883897431669574
            ],
            [
              8.10274,
              48.821311
            ],
            [
              8.090338,
              48.807513
            ],
            [
              8.08424,
              48.804051
            ],
            [
              8.04755,
              48.791028
            ],
            [
              8.038765,
              48.79077
            ],
            [
              8.036594,
              48.788289
            ],
            [
              8.031943,
              48.785344
            ],
            [
              8.027293,
              48.780021
            ],
            [
              8.025122,
              48.770616
            ],
            [
              8.022952,
              48.765087
            ],
            [
              8.017267,
              48.761831
            ],
            [
              8.009619,
              48.760074
            ],
            [
              7.993423665904686,
              48.759895408879856
            ],
            [
              7.9639542992403305,
              48.73430801767308
            ],
            [
              7.963627,
              48.729275
            ],
            [
              7.959183,
              48.721368
            ],
            [
              7.948434,
              48.71186
            ],
            [
              7.935205,
              48.703333
            ],
            [
              7.92332,
              48.698217
            ],
            [
              7.895931,
              48.676513
            ],
            [
              7.882158684354828,
              48.66860310244882
            ],
            [
              7.837988,
              48.636035
            ],
            [
              7.8017133227678865,
              48.56106447638774
            ],
            [
              7.801673,
              48.54758
            ],
            [
              7.813455,
              48.526341
            ],
            [
              7.813455,
              48.519468
            ],
            [
              7.788444,
              48.506343
            ],
            [
              7.785622914576703,
              48.504421725291415
            ],
            [
              7.765137,
              48.41001
            ],
            [
              7.7465422912844195,
              48.36937040163503
            ],
            [
              7.746896,
              48.368677
            ],
            [
              7.75196,
              48.355344
            ],
            [
              7.75072,
              48.341366
            ],
            [
              7.736974,
              48.326664
            ],
            [
              7.725019586664807,
              48.322331532414346
            ],
            [
              7.705664,
              48.280029
            ],
            [
              7.688307664348245,
              48.25601169162613
            ],
            [
              7.687158,
              48.252921
            ],
            [
              7.676616,
              48.2384
            ],
            [
              7.673416689120505,
              48.23540589376602
            ],
            [
              7.616602,
              48.156787
            ],
            [
              7.58418,
              48.064307
            ],
            [
              7.599344191128392,
              48.02581716975435
            ],
            [
              7.618945,
              48.002652
            ],
            [
              7.621116,
              47.97144
            ],
            [
              7.611607,
              47.959399
            ],
            [
              7.600459973802307,
              47.951460009768596
            ],
            [
              7.593262,
              47.905664
            ],
            [
              7.538574,
              47.773633
            ],
            [
              7.53666208143551,
              47.75285455481869
            ],
            [
              7.53833,
              47.748146
            ],
            [
              7.537813,
              47.731816
            ],
            [
              7.534370603958798,
              47.72795112011263
            ],
            [
              7.529395,
              47.673877
            ],
            [
              7.53344464417671,
              47.66630994738464
            ],
            [
              7.536573,
              47.665205
            ],
            [
              7.550112,
              47.652441
            ],
            [
              7.572643,
              47.622004
            ],
            [
              7.578638,
              47.61694
            ],
            [
              7.585046,
              47.613167
            ],
            [
              7.590317,
              47.607948
            ],
            [
              7.592321741856724,
              47.59914006964885
            ],
            [
              7.615625,
              47.592725
            ],
            [
              7.619987298951207,
              47.591515526126116
            ],
            [
              7.637032,
              47.594977
            ],
            [
              7.659666,
              47.596579
            ],
            [
              7.652313216015361,
              47.58255296932393
            ],
            [
              7.698047,
              47.569873
            ],
            [
              7.790790226277532,
              47.567440659005854
            ],
            [
              7.801467,
              47.576089
            ],
            [
              7.819657,
              47.595339
            ],
            [
              7.833713,
              47.590481
            ],
            [
              7.898205,
              47.587846
            ],
            [
              7.904303,
              47.583557
            ],
            [
              7.907507,
              47.574177
            ],
            [
              7.90947,
              47.564798
            ],
            [
              7.909773045478326,
              47.564320142280735
            ],
            [
              7.927051,
              47.563867
            ],
            [
              8.09375,
              47.576172
            ],
            [
              8.103714907656954,
              47.57910562639574
            ],
            [
              8.105427,
              47.581257
            ],
            [
              8.113902,
              47.587846
            ],
            [
              8.122067,
              47.592135
            ],
            [
              8.143771,
              47.600067
            ],
            [
              8.162065,
              47.603762
            ],
            [
              8.168886,
              47.608646
            ],
            [
              8.173847,
              47.613529
            ],
            [
              8.179015,
              47.615803
            ],
            [
              8.232965,
              47.621952
            ],
            [
              8.251051,
              47.622004
            ],
            [
              8.276993,
              47.61663
            ],
            [
              8.288569,
              47.615803
            ],
            [
              8.293943,
              47.611462
            ],
            [
              8.296467742892716,
              47.606934
            ],
            [
              8.327832,
              47.606934
            ],
            [
              8.414746,
              47.5896
            ],
            [
              8.430078,
              47.592139
            ],
            [
              8.454004,
              47.596191
            ],
            [
              8.455899472715522,
              47.5975146949053
            ],
            [
              8.461788,
              47.606139
            ],
            [
              8.49238,
              47.619833
            ],
            [
              8.522353,
              47.621901
            ],
            [
              8.526256619373635,
              47.61942508270522
            ],
            [
              8.559473,
              47.624023
            ],
            [
              8.570508,
              47.637793
            ],
            [
              8.56709,
              47.651904
            ],
            [
              8.552344,
              47.659131
            ],
            [
              8.517420080369263,
              47.65658807367451
            ],
            [
              8.504679,
              47.65226
            ],
            [
              8.49083,
              47.645568
            ],
            [
              8.476051,
              47.640401
            ],
            [
              8.458274,
              47.639884
            ],
            [
              8.437603,
              47.647842
            ],
            [
              8.411972,
              47.661045
            ],
            [
              8.407011,
              47.661562
            ],
            [
              8.391301,
              47.665464
            ],
            [
              8.397709,
              47.67629
            ],
            [
              8.395229,
              47.684817
            ],
            [
              8.390991,
              47.692129
            ],
            [
              8.392128,
              47.699519
            ],
            [
              8.401947,
              47.707089
            ],
            [
              8.423724974386163,
              47.71515564909632
            ],
            [
              8.435742,
              47.731348
            ],
            [
              8.442152043069989,
              47.73442213285046
            ],
            [
              8.445458,
              47.743185
            ],
            [
              8.450109,
              47.750471
            ],
            [
              8.463648,
              47.763907
            ],
            [
              8.471503,
              47.76706
            ],
            [
              8.482665,
              47.766853
            ],
            [
              8.536512,
              47.774088
            ],
            [
              8.551602,
              47.779255
            ],
            [
              8.5423,
              47.795017
            ],
            [
              8.558216,
              47.801166
            ],
            [
              8.583124,
              47.800236
            ],
            [
              8.601624,
              47.794603
            ],
            [
              8.603175,
              47.787317
            ],
            [
              8.604105,
              47.774398
            ],
            [
              8.605764621760466,
              47.768662528554614
            ],
            [
              8.617871,
              47.766113
            ],
            [
              8.626144663288272,
              47.761164188408436
            ],
            [
              8.62984,
              47.762796
            ],
            [
              8.635007,
              47.784604
            ],
            [
              8.644102,
              47.791012
            ],
            [
              8.657022,
              47.788118
            ],
            [
              8.666633,
              47.778273
            ],
            [
              8.674488,
              47.766698
            ],
            [
              8.68193,
              47.75874
            ],
            [
              8.692265,
              47.757164
            ],
            [
              8.703324,
              47.758714
            ],
            [
              8.713142,
              47.757422
            ],
            [
              8.719757,
              47.747319
            ],
            [
              8.71707,
              47.743547
            ],
            [
              8.703737,
              47.730033
            ],
            [
              8.70043,
              47.723496
            ],
            [
              8.704667,
              47.715332
            ],
            [
              8.709469669703221,
              47.71132414256106
            ],
            [
              8.72832,
              47.700049
            ],
            [
              8.754785,
              47.698047
            ],
            [
              8.763254708722163,
              47.70460146738772
            ],
            [
              8.77071,
              47.720861
            ],
            [
              8.797581,
              47.720034
            ],
            [
              8.830241,
              47.707192
            ],
            [
              8.856079,
              47.690682
            ],
            [
              8.846310243894253,
              47.68914529400609
            ],
            [
              8.874023,
              47.662695
            ],
            [
              8.88109404589024,
              47.65644720675233
            ],
            [
              8.881191064189782,
              47.656398268347615
            ],
            [
              8.981877050926565,
              47.66224482036636
            ],
            [
              8.997673,
              47.673835
            ],
            [
              9.016586,
              47.6789
            ],
            [
              9.125785642928319,
              47.670601187487065
            ],
            [
              9.127539,
              47.670703
            ],
            [
              9.182813,
              47.670703
            ],
            [
              9.216711262681219,
              47.65614974166969
            ],
            [
              9.234351,
              47.656162
            ],
            [
              9.273211,
              47.65009
            ],
            [
              9.547482,
              47.534547
            ],
            [
              9.553059,
              47.516891
            ],
            [
              9.554951,
              47.5109
            ],
            [
              9.555223032033767,
              47.51062226209456
            ],
            [
              9.625879,
              47.467041
            ],
            [
              9.625813869124642,
              47.46674923911499
            ],
            [
              9.650346,
              47.452092
            ],
            [
              9.649519,
              47.409717
            ],
            [
              9.639804,
              47.394524
            ],
            [
              9.601047,
              47.36127
            ],
            [
              9.596396,
              47.352305
            ],
            [
              9.591228,
              47.334683
            ],
            [
              9.587404,
              47.32781
            ],
            [
              9.553298,
              47.299853
            ],
            [
              9.527007934981821,
              47.26954781725248
            ],
            [
              9.523148347760625,
              47.260796255418754
            ],
            [
              9.53025,
              47.253654
            ],
            [
              9.547096,
              47.243035
            ],
            [
              9.540378,
              47.229108
            ],
            [
              9.544823,
              47.220323
            ],
            [
              9.554331,
              47.211615
            ],
            [
              9.562909,
              47.19774
            ],
            [
              9.561876,
              47.190609
            ],
            [
              9.551954,
              47.175571
            ],
            [
              9.552057,
              47.16689
            ],
            [
              9.581823,
              47.154901
            ],
            [
              9.605594,
              47.132266
            ],
            [
              9.615723,
              47.106764
            ],
            [
              9.608798,
              47.080771
            ],
            [
              9.581788064301476,
              47.05737674476788
            ],
            [
              9.619922,
              47.057471
            ],
            [
              9.629162737235687,
              47.05596690008159
            ],
            [
              9.65231,
              47.05793
            ],
            [
              9.669053,
              47.056199
            ],
            [
              9.857982,
              47.015478
            ],
            [
              9.856328,
              47.004083
            ],
            [
              9.860566,
              47.001602
            ],
            [
              9.866767,
              47.001938
            ],
            [
              9.870591,
              46.998838
            ],
            [
              9.870591,
              46.992947
            ],
            [
              9.866457,
              46.983387
            ],
            [
              9.86543115692306,
              46.97368593983428
            ],
            [
              9.877734,
              46.937695
            ],
            [
              9.961957980554077,
              46.900692324060216
            ],
            [
              10.006913,
              46.890757
            ],
            [
              10.026441844386543,
              46.878028946586895
            ],
            [
              10.133496,
              46.851514
            ],
            [
              10.179785,
              46.862354
            ],
            [
              10.214617473242596,
              46.88749069664133
            ],
            [
              10.215169,
              46.893108
            ],
            [
              10.219924,
              46.905769
            ],
            [
              10.235116,
              46.923313
            ],
            [
              10.251343,
              46.92538
            ],
            [
              10.263978349906715,
              46.9231117498469
            ],
            [
              10.304626398619469,
              46.95244523020124
            ],
            [
              10.313665,
              46.964318
            ],
            [
              10.338883,
              46.98411
            ],
            [
              10.367925,
              46.995505
            ],
            [
              10.373403,
              46.996254
            ],
            [
              10.378984,
              46.995505
            ],
            [
              10.384255,
              46.993153
            ],
            [
              10.384358,
              46.993153
            ],
            [
              10.384358,
              46.992998
            ],
            [
              10.394693,
              46.985402
            ],
            [
              10.413291725291666,
              46.96491649914709
            ],
            [
              10.414941,
              46.964404
            ],
            [
              10.416452543158307,
              46.96192637913041
            ],
            [
              10.449574,
              46.943906
            ],
            [
              10.458462,
              46.936619
            ],
            [
              10.463836,
              46.919747
            ],
            [
              10.454293744778495,
              46.89360466766158
            ],
            [
              10.453121504501043,
              46.870617956009355
            ],
            [
              10.453793310547775,
              46.86458583297384
            ],
            [
              10.479395,
              46.855127
            ],
            [
              10.579785,
              46.853711
            ],
            [
              10.582391366323305,
              46.853536627990906
            ],
            [
              10.629408,
              46.862412
            ],
            [
              10.647081,
              46.863756
            ],
            [
              10.662481,
              46.860965
            ],
            [
              10.738962,
              46.829546
            ],
            [
              10.748677,
              46.819443
            ],
            [
              10.743819,
              46.812518
            ],
            [
              10.738319605654972,
              46.80945510884236
            ],
            [
              10.759766,
              46.793311
            ],
            [
              10.815596836548929,
              46.77872182262179
            ],
            [
              10.823918,
              46.78035
            ],
            [
              10.83415,
              46.780246
            ],
            [
              10.843141,
              46.777043
            ],
            [
              10.848099179825018,
              46.774120540541745
            ],
            [
              10.906641070923248,
              46.770693831582726
            ],
            [
              10.913731,
              46.77234
            ],
            [
              10.930888,
              46.773994
            ],
            [
              10.953506337537855,
              46.7724666290586
            ],
            [
              10.993262,
              46.777002
            ],
            [
              11.025098,
              46.796973
            ],
            [
              11.063477,
              46.859131
            ],
            [
              11.075194583054895,
              46.871953773639575
            ],
            [
              11.083643,
              46.900136
            ],
            [
              11.091912,
              46.912435
            ],
            [
              11.156611,
              46.956515
            ],
            [
              11.174491,
              46.963853
            ],
            [
              11.243737,
              46.979252
            ],
            [
              11.31381,
              46.987262
            ],
            [
              11.349467,
              46.98194
            ],
            [
              11.35524148508711,
              46.980011954206184
            ],
            [
              11.429960718165857,
              46.98293036191873
            ],
            [
              11.445172,
              46.992998
            ],
            [
              11.445275,
              46.993102
            ],
            [
              11.452923,
              47.000879
            ],
            [
              11.461812,
              47.005504
            ],
            [
              11.471837,
              47.00708
            ],
            [
              11.489407,
              47.004212
            ],
            [
              11.495918,
              47.001602
            ],
            [
              11.501706,
              46.997856
            ],
            [
              11.505780235623686,
              46.99410099399358
            ],
            [
              11.527539,
              46.997412
            ],
            [
              11.563670311161223,
              46.99710583058261
            ],
            [
              11.572709,
              46.998915
            ],
            [
              11.59648,
              47.00044
            ],
            [
              11.624036478368543,
              46.9965942999005
            ],
            [
              11.625488,
              46.996582
            ],
            [
              11.634295115609357,
              46.99516263502191
            ],
            [
              11.64795,
              46.993257
            ],
            [
              11.648467,
              46.993257
            ],
            [
              11.649707,
              46.992998
            ],
            [
              11.657252,
              46.992533
            ],
            [
              11.664797,
              46.993257
            ],
            [
              11.683814,
              46.991913
            ],
            [
              11.69745436688404,
              46.98498381674842
            ],
            [
              11.699414,
              46.984668
            ],
            [
              11.771947574629108,
              46.98601463093844
            ],
            [
              11.777141,
              46.988296
            ],
            [
              11.787958419367222,
              46.989478782717995
            ],
            [
              11.844170466110452,
              47.00502556168308
            ],
            [
              11.857033,
              47.012015
            ],
            [
              11.899511,
              47.027725
            ],
            [
              11.943643,
              47.038164
            ],
            [
              11.966706976413366,
              47.038915949085876
            ],
            [
              11.969531,
              47.039697
            ],
            [
              12.0764755863697,
              47.06239737312516
            ],
            [
              12.116242,
              47.076559
            ],
            [
              12.133146,
              47.078832
            ],
            [
              12.180631,
              47.085215
            ],
            [
              12.204195,
              47.079686
            ],
            [
              12.203897,
              47.067012
            ],
            [
              12.203575,
              47.053331
            ],
            [
              12.182284,
              47.033616
            ],
            [
              12.164432587820704,
              47.02680750369973
            ],
            [
              12.130762,
              46.984766
            ],
            [
              12.154102,
              46.935254
            ],
            [
              12.221644285207233,
              46.87631384025559
            ],
            [
              12.250807,
              46.875615
            ],
            [
              12.26662,
              46.868148
            ],
            [
              12.275819,
              46.846289
            ],
            [
              12.276129,
              46.83399
            ],
            [
              12.274008062650184,
              46.82849197716735
            ],
            [
              12.319196141271329,
              46.77314278331294
            ],
            [
              12.326048,
              46.772495
            ],
            [
              12.342688,
              46.765131
            ],
            [
              12.351473,
              46.743246
            ],
            [
              12.357702598348416,
              46.7326763668923
            ],
            [
              12.388281,
              46.702637
            ],
            [
              12.469067276369122,
              46.67586729380131
            ],
            [
              12.469632,
              46.675799
            ],
            [
              12.499888,
              46.672139
            ],
            [
              12.508858952705285,
              46.66793860149205
            ],
            [
              12.59689133257266,
              46.654370437915524
            ],
            [
              12.62019,
              46.656481
            ],
            [
              12.669593,
              46.653019
            ],
            [
              12.671368,
              46.652466
            ],
            [
              12.679205,
              46.650022
            ],
            [
              12.681857686106852,
              46.64863907408734
            ],
            [
              12.699805,
              46.647461
            ],
            [
              12.729097810393753,
              46.64148339545846
            ],
            [
              12.732018,
              46.64227
            ],
            [
              12.739873,
              46.642994
            ],
            [
              12.7485,
              46.640996
            ],
            [
              12.773566,
              46.635191
            ],
            [
              12.784898615230167,
              46.63009646672311
            ],
            [
              12.805566,
              46.625879
            ],
            [
              12.960340584592947,
              46.60319747296194
            ],
            [
              13.064504,
              46.598035
            ],
            [
              13.146463,
              46.584961
            ],
            [
              13.1770681384306,
              46.57198504147814
            ],
            [
              13.331062592943322,
              46.55956352524155
            ],
            [
              13.373323,
              46.565789
            ],
            [
              13.417041,
              46.560492
            ],
            [
              13.478019,
              46.563567
            ],
            [
              13.484944,
              46.561733
            ],
            [
              13.493556380612393,
              46.55497460173852
            ],
            [
              13.547630264332065,
              46.54588283591976
            ],
            [
              13.549229,
              46.545842
            ],
            [
              13.553297778927744,
              46.54492992275848
            ],
            [
              13.7,
              46.520264
            ],
            [
              13.705971123289638,
              46.519454579555436
            ],
            [
              13.716093,
              46.518867
            ],
            [
              13.74038698767152,
              46.51478930923747
            ],
            [
              13.743945,
              46.514307
            ],
            [
              13.826695152165707,
              46.51139380230411
            ],
            [
              13.860683,
              46.51525
            ],
            [
              13.890862,
              46.511787
            ],
            [
              13.936813307522721,
              46.496781537932435
            ],
            [
              14.016509144670213,
              46.482728148459664
            ],
            [
              14.032456,
              46.484709
            ],
            [
              14.050026,
              46.484399
            ],
            [
              14.066355,
              46.48104
            ],
            [
              14.081032,
              46.47595
            ],
            [
              14.10594291058455,
              46.46110172730894
            ],
            [
              14.267285,
              46.440723
            ],
            [
              14.313743100970328,
              46.43682919649421
            ],
            [
              14.362151,
              46.435875
            ],
            [
              14.395844,
              46.440991
            ],
            [
              14.40649,
              46.439337
            ],
            [
              14.411244,
              46.434635
            ],
            [
              14.414448,
              46.429002
            ],
            [
              14.415266099400915,
              46.42832022606815
            ],
            [
              14.419922,
              46.42793
            ],
            [
              14.465918,
              46.416113
            ],
            [
              14.492566750702448,
              46.41677074883376
            ],
            [
              14.502194,
              46.418356
            ],
            [
              14.503612339203682,
              46.417004923529205
            ],
            [
              14.549805,
              46.399707
            ],
            [
              14.571183942553173,
              46.41005283505334
            ],
            [
              14.575368,
              46.419726
            ],
            [
              14.590148,
              46.434428
            ],
            [
              14.599863,
              46.437167
            ],
            [
              14.600362410080457,
              46.43719790249438
            ],
            [
              14.656441117828084,
              46.455627720946254
            ],
            [
              14.662081,
              46.459698
            ],
            [
              14.666629,
              46.460524
            ],
            [
              14.67005007556062,
              46.46010019598007
            ],
            [
              14.680176,
              46.463428
            ],
            [
              14.683482926019694,
              46.46496968008178
            ],
            [
              14.687093,
              46.471221
            ],
            [
              14.698772,
              46.480962
            ],
            [
              14.703733,
              46.487758
            ],
            [
              14.709727,
              46.492512
            ],
            [
              14.726367,
              46.497706
            ],
            [
              14.735255,
              46.493339
            ],
            [
              14.747305368648554,
              46.49472353244655
            ],
            [
              14.756738,
              46.499121
            ],
            [
              14.810547,
              46.54458
            ],
            [
              14.812266912461405,
              46.5466321955691
            ],
            [
              14.814519,
              46.551337
            ],
            [
              14.822278,
              46.567546
            ],
            [
              14.833647,
              46.584393
            ],
            [
              14.85039,
              46.601136
            ],
            [
              14.862999,
              46.604831
            ],
            [
              14.877055,
              46.603642
            ],
            [
              14.891299178272014,
              46.60495938549047
            ],
            [
              14.893262,
              46.605908
            ],
            [
              14.90080546075506,
              46.60689190630022
            ],
            [
              14.919507,
              46.615017
            ],
            [
              14.933589,
              46.621135
            ],
            [
              14.947955,
              46.619274
            ],
            [
              14.95312917438959,
              46.614155540035014
            ],
            [
              14.990848432840993,
              46.62353201651177
            ],
            [
              15.004386,
              46.636844
            ],
            [
              15.061954,
              46.649557
            ],
            [
              15.085723,
              46.647795
            ],
            [
              15.105591,
              46.646323
            ],
            [
              15.172557,
              46.64136
            ],
            [
              15.184880080782625,
              46.640446459311065
            ],
            [
              15.216992,
              46.642969
            ],
            [
              15.254142113676055,
              46.64074098934924
            ],
            [
              15.332784,
              46.64358
            ],
            [
              15.388135,
              46.645578
            ],
            [
              15.417591,
              46.637955
            ],
            [
              15.430468708456901,
              46.63016612181022
            ],
            [
              15.439258,
              46.629639
            ],
            [
              15.520617268864736,
              46.64881755567035
            ],
            [
              15.52084,
              46.649608
            ],
            [
              15.530659,
              46.663845
            ],
            [
              15.545955,
              46.671881
            ],
            [
              15.567349,
              46.675757
            ],
            [
              15.587802684716337,
              46.67595489859807
            ],
            [
              15.632617,
              46.698437
            ],
            [
              15.632907149121223,
              46.698464972178414
            ],
            [
              15.632875,
              46.702473
            ],
            [
              15.635975,
              46.717563
            ],
            [
              15.652098,
              46.710819
            ],
            [
              15.70497912764629,
              46.705413158799466
            ],
            [
              15.760254,
              46.710742
            ],
            [
              15.766895,
              46.711279
            ],
            [
              15.775695345683836,
              46.70972668181177
            ],
            [
              15.78461,
              46.7122
            ],
            [
              15.822941,
              46.722834
            ],
            [
              15.850743,
              46.724488
            ],
            [
              15.878545,
              46.720715
            ],
            [
              15.880204,
              46.720139
            ],
            [
              16.236507,
              47.218405
            ],
            [
              15.955701,
              48.886689
            ],
            [
              15.144481,
              50.381892
            ],
            [
              13.896451,
              50.679389
            ],
            [
              10.932379,
              50.262367
            ],
            [
              6.953031055146234,
              49.195641592921596
            ]
          ]
        ]
      }
    },
    {
      "type": "Feature",
      "properties": {
        "fid": null,
        "prob": 5,
        "warning": 0,
        "date": "1",
        "kind": "outlook",
        "hazard": "general",
        "title": "Very local tstorms",
        "description": "",
        "hatched": false,
        "doubleHatch": false,
        "probability": "45",
        "intensity": "2",
        "riskLabel": "General Risk"
      },
      "geometry": {
        "type": "Polygon",
        "coordinates": [
          [
            [
              7.529395,
              47.673877
            ],
            [
              7.53344464417671,
              47.66630994738464
            ],
            [
              7.536573,
              47.665205
            ],
            [
              7.550112,
              47.652441
            ],
            [
              7.572643,
              47.622004
            ],
            [
              7.578638,
              47.61694
            ],
            [
              7.585046,
              47.613167
            ],
            [
              7.590317,
              47.607948
            ],
            [
              7.592321741856724,
              47.59914006964885
            ],
            [
              7.615625,
              47.592725
            ],
            [
              7.619987298951207,
              47.591515526126116
            ],
            [
              7.637032,
              47.594977
            ],
            [
              7.659666,
              47.596579
            ],
            [
              7.652313216015361,
              47.58255296932393
            ],
            [
              7.698047,
              47.569873
            ],
            [
              7.790790226277532,
              47.567440659005854
            ],
            [
              7.801467,
              47.576089
            ],
            [
              7.819657,
              47.595339
            ],
            [
              7.833713,
              47.590481
            ],
            [
              7.898205,
              47.587846
            ],
            [
              7.904303,
              47.583557
            ],
            [
              7.907507,
              47.574177
            ],
            [
              7.90947,
              47.564798
            ],
            [
              7.909773045478326,
              47.564320142280735
            ],
            [
              7.927051,
              47.563867
            ],
            [
              8.09375,
              47.576172
            ],
            [
              8.103714907656954,
              47.57910562639574
            ],
            [
              8.105427,
              47.581257
            ],
            [
              8.113902,
              47.587846
            ],
            [
              8.122067,
              47.592135
            ],
            [
              8.143771,
              47.600067
            ],
            [
              8.162065,
              47.603762
            ],
            [
              8.168886,
              47.608646
            ],
            [
              8.173847,
              47.613529
            ],
            [
              8.179015,
              47.615803
            ],
            [
              8.232965,
              47.621952
            ],
            [
              8.251051,
              47.622004
            ],
            [
              8.276993,
              47.61663
            ],
            [
              8.288569,
              47.615803
            ],
            [
              8.293943,
              47.611462
            ],
            [
              8.296467742892716,
              47.606934
            ],
            [
              8.327832,
              47.606934
            ],
            [
              8.414746,
              47.5896
            ],
            [
              8.430078,
              47.592139
            ],
            [
              8.454004,
              47.596191
            ],
            [
              8.455899472715522,
              47.5975146949053
            ],
            [
              8.461788,
              47.606139
            ],
            [
              8.49238,
              47.619833
            ],
            [
              8.522353,
              47.621901
            ],
            [
              8.526256619373635,
              47.61942508270522
            ],
            [
              8.559473,
              47.624023
            ],
            [
              8.570508,
              47.637793
            ],
            [
              8.56709,
              47.651904
            ],
            [
              8.552344,
              47.659131
            ],
            [
              8.517420080369263,
              47.65658807367451
            ],
            [
              8.504679,
              47.65226
            ],
            [
              8.49083,
              47.645568
            ],
            [
              8.476051,
              47.640401
            ],
            [
              8.458274,
              47.639884
            ],
            [
              8.437603,
              47.647842
            ],
            [
              8.411972,
              47.661045
            ],
            [
              8.407011,
              47.661562
            ],
            [
              8.391301,
              47.665464
            ],
            [
              8.397709,
              47.67629
            ],
            [
              8.395229,
              47.684817
            ],
            [
              8.390991,
              47.692129
            ],
            [
              8.392128,
              47.699519
            ],
            [
              8.401947,
              47.707089
            ],
            [
              8.423724974386163,
              47.71515564909632
            ],
            [
              8.435742,
              47.731348
            ],
            [
              8.442152043069989,
              47.73442213285046
            ],
            [
              8.445458,
              47.743185
            ],
            [
              8.450109,
              47.750471
            ],
            [
              8.463648,
              47.763907
            ],
            [
              8.471503,
              47.76706
            ],
            [
              8.482665,
              47.766853
            ],
            [
              8.536512,
              47.774088
            ],
            [
              8.551602,
              47.779255
            ],
            [
              8.5423,
              47.795017
            ],
            [
              8.558216,
              47.801166
            ],
            [
              8.583124,
              47.800236
            ],
            [
              8.601624,
              47.794603
            ],
            [
              8.603175,
              47.787317
            ],
            [
              8.604105,
              47.774398
            ],
            [
              8.605764621760466,
              47.768662528554614
            ],
            [
              8.617871,
              47.766113
            ],
            [
              8.626144663288272,
              47.761164188408436
            ],
            [
              8.62984,
              47.762796
            ],
            [
              8.635007,
              47.784604
            ],
            [
              8.644102,
              47.791012
            ],
            [
              8.657022,
              47.788118
            ],
            [
              8.666633,
              47.778273
            ],
            [
              8.674488,
              47.766698
            ],
            [
              8.68193,
              47.75874
            ],
            [
              8.692265,
              47.757164
            ],
            [
              8.703324,
              47.758714
            ],
            [
              8.713142,
              47.757422
            ],
            [
              8.719757,
              47.747319
            ],
            [
              8.71707,
              47.743547
            ],
            [
              8.703737,
              47.730033
            ],
            [
              8.70043,
              47.723496
            ],
            [
              8.704667,
              47.715332
            ],
            [
              8.709469669703221,
              47.71132414256106
            ],
            [
              8.72832,
              47.700049
            ],
            [
              8.754785,
              47.698047
            ],
            [
              8.763254708722163,
              47.70460146738772
            ],
            [
              8.77071,
              47.720861
            ],
            [
              8.797581,
              47.720034
            ],
            [
              8.830241,
              47.707192
            ],
            [
              8.856079,
              47.690682
            ],
            [
              8.846310243894253,
              47.68914529400609
            ],
            [
              8.874023,
              47.662695
            ],
            [
              8.88109404589024,
              47.65644720675233
            ],
            [
              8.881191064189782,
              47.656398268347615
            ],
            [
              8.981877050926565,
              47.66224482036636
            ],
            [
              8.997673,
              47.673835
            ],
            [
              9.016586,
              47.6789
            ],
            [
              9.125785642928319,
              47.670601187487065
            ],
            [
              9.127539,
              47.670703
            ],
            [
              9.182813,
              47.670703
            ],
            [
              9.216711262681219,
              47.65614974166969
            ],
            [
              9.234351,
              47.656162
            ],
            [
              9.273211,
              47.65009
            ],
            [
              9.547482,
              47.534547
            ],
            [
              9.553059,
              47.516891
            ],
            [
              9.554951,
              47.5109
            ],
            [
              9.555223032033767,
              47.51062226209456
            ],
            [
              9.625879,
              47.467041
            ],
            [
              9.625813869124642,
              47.46674923911499
            ],
            [
              9.650346,
              47.452092
            ],
            [
              9.649519,
              47.409717
            ],
            [
              9.639804,
              47.394524
            ],
            [
              9.601047,
              47.36127
            ],
            [
              9.596396,
              47.352305
            ],
            [
              9.591228,
              47.334683
            ],
            [
              9.587404,
              47.32781
            ],
            [
              9.553298,
              47.299853
            ],
            [
              9.527007934981821,
              47.26954781725248
            ],
            [
              9.523148347760625,
              47.260796255418754
            ],
            [
              9.53025,
              47.253654
            ],
            [
              9.547096,
              47.243035
            ],
            [
              9.540378,
              47.229108
            ],
            [
              9.544823,
              47.220323
            ],
            [
              9.554331,
              47.211615
            ],
            [
              9.562909,
              47.19774
            ],
            [
              9.561876,
              47.190609
            ],
            [
              9.551954,
              47.175571
            ],
            [
              9.552057,
              47.16689
            ],
            [
              9.581823,
              47.154901
            ],
            [
              9.605594,
              47.132266
            ],
            [
              9.615723,
              47.106764
            ],
            [
              9.608798,
              47.080771
            ],
            [
              9.581788064301476,
              47.05737674476788
            ],
            [
              9.619922,
              47.057471
            ],
            [
              9.629162737235687,
              47.05596690008159
            ],
            [
              9.65231,
              47.05793
            ],
            [
              9.669053,
              47.056199
            ],
            [
              9.857982,
              47.015478
            ],
            [
              9.856328,
              47.004083
            ],
            [
              9.860566,
              47.001602
            ],
            [
              9.866767,
              47.001938
            ],
            [
              9.870591,
              46.998838
            ],
            [
              9.870591,
              46.992947
            ],
            [
              9.866457,
              46.983387
            ],
            [
              9.86543115692306,
              46.97368593983428
            ],
            [
              9.877734,
              46.937695
            ],
            [
              9.961957980554077,
              46.900692324060216
            ],
            [
              10.006913,
              46.890757
            ],
            [
              10.026441844386543,
              46.878028946586895
            ],
            [
              10.133496,
              46.851514
            ],
            [
              10.179785,
              46.862354
            ],
            [
              10.214617473242596,
              46.88749069664133
            ],
            [
              10.215169,
              46.893108
            ],
            [
              10.219924,
              46.905769
            ],
            [
              10.235116,
              46.923313
            ],
            [
              10.251343,
              46.92538
            ],
            [
              10.263978349906715,
              46.9231117498469
            ],
            [
              10.304626398619469,
              46.95244523020124
            ],
            [
              10.313665,
              46.964318
            ],
            [
              10.338883,
              46.98411
            ],
            [
              10.367925,
              46.995505
            ],
            [
              10.373403,
              46.996254
            ],
            [
              10.378984,
              46.995505
            ],
            [
              10.384255,
              46.993153
            ],
            [
              10.384358,
              46.993153
            ],
            [
              10.384358,
              46.992998
            ],
            [
              10.394693,
              46.985402
            ],
            [
              10.413291725291666,
              46.96491649914709
            ],
            [
              10.414941,
              46.964404
            ],
            [
              10.416452543158307,
              46.96192637913041
            ],
            [
              10.449574,
              46.943906
            ],
            [
              10.458462,
              46.936619
            ],
            [
              10.463836,
              46.919747
            ],
            [
              10.454293744778495,
              46.89360466766158
            ],
            [
              10.453121504501043,
              46.870617956009355
            ],
            [
              10.453793310547775,
              46.86458583297384
            ],
            [
              10.479395,
              46.855127
            ],
            [
              10.579785,
              46.853711
            ],
            [
              10.582391366323305,
              46.853536627990906
            ],
            [
              10.629408,
              46.862412
            ],
            [
              10.647081,
              46.863756
            ],
            [
              10.662481,
              46.860965
            ],
            [
              10.738962,
              46.829546
            ],
            [
              10.748677,
              46.819443
            ],
            [
              10.743819,
              46.812518
            ],
            [
              10.738319605654972,
              46.80945510884236
            ],
            [
              10.759766,
              46.793311
            ],
            [
              10.815596836548929,
              46.77872182262179
            ],
            [
              10.823918,
              46.78035
            ],
            [
              10.83415,
              46.780246
            ],
            [
              10.843141,
              46.777043
            ],
            [
              10.848099179825018,
              46.774120540541745
            ],
            [
              10.906641070923248,
              46.770693831582726
            ],
            [
              10.913731,
              46.77234
            ],
            [
              10.930888,
              46.773994
            ],
            [
              10.953506337537855,
              46.7724666290586
            ],
            [
              10.993262,
              46.777002
            ],
            [
              11.025098,
              46.796973
            ],
            [
              11.063477,
              46.859131
            ],
            [
              11.075194583054895,
              46.871953773639575
            ],
            [
              11.083643,
              46.900136
            ],
            [
              11.091912,
              46.912435
            ],
            [
              11.156611,
              46.956515
            ],
            [
              11.174491,
              46.963853
            ],
            [
              11.243737,
              46.979252
            ],
            [
              11.31381,
              46.987262
            ],
            [
              11.349467,
              46.98194
            ],
            [
              11.35524148508711,
              46.980011954206184
            ],
            [
              11.429960718165857,
              46.98293036191873
            ],
            [
              11.445172,
              46.992998
            ],
            [
              11.445275,
              46.993102
            ],
            [
              11.452923,
              47.000879
            ],
            [
              11.461812,
              47.005504
            ],
            [
              11.471837,
              47.00708
            ],
            [
              11.489407,
              47.004212
            ],
            [
              11.495918,
              47.001602
            ],
            [
              11.501706,
              46.997856
            ],
            [
              11.505780235623686,
              46.99410099399358
            ],
            [
              11.527539,
              46.997412
            ],
            [
              11.563670311161223,
              46.99710583058261
            ],
            [
              11.572709,
              46.998915
            ],
            [
              11.59648,
              47.00044
            ],
            [
              11.624036478368543,
              46.9965942999005
            ],
            [
              11.625488,
              46.996582
            ],
            [
              11.634295115609357,
              46.99516263502191
            ],
            [
              11.64795,
              46.993257
            ],
            [
              11.648467,
              46.993257
            ],
            [
              11.649707,
              46.992998
            ],
            [
              11.657252,
              46.992533
            ],
            [
              11.664797,
              46.993257
            ],
            [
              11.683814,
              46.991913
            ],
            [
              11.69745436688404,
              46.98498381674842
            ],
            [
              11.699414,
              46.984668
            ],
            [
              11.771947574629108,
              46.98601463093844
            ],
            [
              11.777141,
              46.988296
            ],
            [
              11.787958419367222,
              46.989478782717995
            ],
            [
              11.844170466110452,
              47.00502556168308
            ],
            [
              11.857033,
              47.012015
            ],
            [
              11.899511,
              47.027725
            ],
            [
              11.943643,
              47.038164
            ],
            [
              11.966706976413366,
              47.038915949085876
            ],
            [
              11.969531,
              47.039697
            ],
            [
              12.0764755863697,
              47.06239737312516
            ],
            [
              12.116242,
              47.076559
            ],
            [
              12.133146,
              47.078832
            ],
            [
              12.180631,
              47.085215
            ],
            [
              12.204195,
              47.079686
            ],
            [
              12.203897,
              47.067012
            ],
            [
              12.203575,
              47.053331
            ],
            [
              12.182284,
              47.033616
            ],
            [
              12.164432587820704,
              47.02680750369973
            ],
            [
              12.130762,
              46.984766
            ],
            [
              12.154102,
              46.935254
            ],
            [
              12.221644285207233,
              46.87631384025559
            ],
            [
              12.250807,
              46.875615
            ],
            [
              12.26662,
              46.868148
            ],
            [
              12.275819,
              46.846289
            ],
            [
              12.276129,
              46.83399
            ],
            [
              12.274008062650184,
              46.82849197716735
            ],
            [
              12.319196141271329,
              46.77314278331294
            ],
            [
              12.326048,
              46.772495
            ],
            [
              12.342688,
              46.765131
            ],
            [
              12.351473,
              46.743246
            ],
            [
              12.357702598348416,
              46.7326763668923
            ],
            [
              12.388281,
              46.702637
            ],
            [
              12.469067276369122,
              46.67586729380131
            ],
            [
              12.469632,
              46.675799
            ],
            [
              12.499888,
              46.672139
            ],
            [
              12.508858952705285,
              46.66793860149205
            ],
            [
              12.59689133257266,
              46.654370437915524
            ],
            [
              12.62019,
              46.656481
            ],
            [
              12.669593,
              46.653019
            ],
            [
              12.671368,
              46.652466
            ],
            [
              12.679205,
              46.650022
            ],
            [
              12.681857686106852,
              46.64863907408734
            ],
            [
              12.699805,
              46.647461
            ],
            [
              12.729097810393753,
              46.64148339545846
            ],
            [
              12.732018,
              46.64227
            ],
            [
              12.739873,
              46.642994
            ],
            [
              12.7485,
              46.640996
            ],
            [
              12.773566,
              46.635191
            ],
            [
              12.784898615230167,
              46.63009646672311
            ],
            [
              12.805566,
              46.625879
            ],
            [
              12.960340584592947,
              46.60319747296194
            ],
            [
              13.064504,
              46.598035
            ],
            [
              13.146463,
              46.584961
            ],
            [
              13.1770681384306,
              46.57198504147814
            ],
            [
              13.331062592943322,
              46.55956352524155
            ],
            [
              13.373323,
              46.565789
            ],
            [
              13.417041,
              46.560492
            ],
            [
              13.478019,
              46.563567
            ],
            [
              13.484944,
              46.561733
            ],
            [
              13.493556380612393,
              46.55497460173852
            ],
            [
              13.547630264332065,
              46.54588283591976
            ],
            [
              13.549229,
              46.545842
            ],
            [
              13.553297778927744,
              46.54492992275848
            ],
            [
              13.7,
              46.520264
            ],
            [
              13.705971123289638,
              46.519454579555436
            ],
            [
              13.716093,
              46.518867
            ],
            [
              13.74038698767152,
              46.51478930923747
            ],
            [
              13.743945,
              46.514307
            ],
            [
              13.826695152165707,
              46.51139380230411
            ],
            [
              13.860683,
              46.51525
            ],
            [
              13.890862,
              46.511787
            ],
            [
              13.936813307522721,
              46.496781537932435
            ],
            [
              14.016509144670213,
              46.482728148459664
            ],
            [
              14.032456,
              46.484709
            ],
            [
              14.050026,
              46.484399
            ],
            [
              14.066355,
              46.48104
            ],
            [
              14.081032,
              46.47595
            ],
            [
              14.10594291058455,
              46.46110172730894
            ],
            [
              14.267285,
              46.440723
            ],
            [
              14.313743100970328,
              46.43682919649421
            ],
            [
              14.362151,
              46.435875
            ],
            [
              14.395844,
              46.440991
            ],
            [
              14.40649,
              46.439337
            ],
            [
              14.411244,
              46.434635
            ],
            [
              14.414448,
              46.429002
            ],
            [
              14.415266099400915,
              46.42832022606815
            ],
            [
              14.419922,
              46.42793
            ],
            [
              14.465918,
              46.416113
            ],
            [
              14.492566750702448,
              46.41677074883376
            ],
            [
              14.502194,
              46.418356
            ],
            [
              14.503612339203682,
              46.417004923529205
            ],
            [
              14.549805,
              46.399707
            ],
            [
              14.571183942553173,
              46.41005283505334
            ],
            [
              14.575368,
              46.419726
            ],
            [
              14.590148,
              46.434428
            ],
            [
              14.599863,
              46.437167
            ],
            [
              14.600362410080457,
              46.43719790249438
            ],
            [
              14.656441117828084,
              46.455627720946254
            ],
            [
              14.662081,
              46.459698
            ],
            [
              14.666629,
              46.460524
            ],
            [
              14.67005007556062,
              46.46010019598007
            ],
            [
              14.680176,
              46.463428
            ],
            [
              14.683482926019694,
              46.46496968008178
            ],
            [
              14.687093,
              46.471221
            ],
            [
              14.698772,
              46.480962
            ],
            [
              14.703733,
              46.487758
            ],
            [
              14.709727,
              46.492512
            ],
            [
              14.726367,
              46.497706
            ],
            [
              14.735255,
              46.493339
            ],
            [
              14.747305368648554,
              46.49472353244655
            ],
            [
              14.756738,
              46.499121
            ],
            [
              14.810547,
              46.54458
            ],
            [
              14.812266912461405,
              46.5466321955691
            ],
            [
              14.814519,
              46.551337
            ],
            [
              14.822278,
              46.567546
            ],
            [
              14.833647,
              46.584393
            ],
            [
              14.85039,
              46.601136
            ],
            [
              14.862999,
              46.604831
            ],
            [
              14.877055,
              46.603642
            ],
            [
              14.889874,
              46.604828
            ],
            [
              14.770072,
              46.835581
            ],
            [
              14.043567,
              47.217867
            ],
            [
              13.171202,
              47.499595
            ],
            [
              13.022829,
              47.787496
            ],
            [
              14.426863,
              48.371155
            ],
            [
              14.083655,
              49.111857
            ],
            [
              13.085231,
              49.861779
            ],
            [
              12.024405,
              50.042458
            ],
            [
              9.590746,
              49.680423
            ],
            [
              7.652658937804075,
              49.057364368210386
            ],
            [
              7.761754734825938,
              49.045849341339824
            ],
            [
              7.762606,
              49.046155
            ],
            [
              7.773665,
              49.048118
            ],
            [
              7.835273544695016,
              49.036370768025556
            ],
            [
              7.860503906250789,
              49.03250500377275
            ],
            [
              7.913811,
              49.036181
            ],
            [
              7.931898,
              49.034838
            ],
            [
              7.998986131917298,
              49.011286931394075
            ],
            [
              8.00127,
              49.010937
            ],
            [
              8.080664,
              48.985889
            ],
            [
              8.134863,
              48.973584
            ],
            [
              8.13489302774015,
              48.973105455882994
            ],
            [
              8.18873,
              48.965746
            ],
            [
              8.200305,
              48.958563
            ],
            [
              8.199892,
              48.95825
            ],
            [
              8.179325,
              48.942698
            ],
            [
              8.148112,
              48.903734
            ],
            [
              8.140153170913033,
              48.88927595164782
            ],
            [
              8.140332,
              48.886426
            ],
            [
              8.137192417137353,
              48.883897431669574
            ],
            [
              8.10274,
              48.821311
            ],
            [
              8.090338,
              48.807513
            ],
            [
              8.08424,
              48.804051
            ],
            [
              8.04755,
              48.791028
            ],
            [
              8.038765,
              48.79077
            ],
            [
              8.036594,
              48.788289
            ],
            [
              8.031943,
              48.785344
            ],
            [
              8.027293,
              48.780021
            ],
            [
              8.025122,
              48.770616
            ],
            [
              8.022952,
              48.765087
            ],
            [
              8.017267,
              48.761831
            ],
            [
              8.009619,
              48.760074
            ],
            [
              7.993423665904686,
              48.759895408879856
            ],
            [
              7.9639542992403305,
              48.73430801767308
            ],
            [
              7.963627,
              48.729275
            ],
            [
              7.959183,
              48.721368
            ],
            [
              7.948434,
              48.71186
            ],
            [
              7.935205,
              48.703333
            ],
            [
              7.92332,
              48.698217
            ],
            [
              7.895931,
              48.676513
            ],
            [
              7.882158684354828,
              48.66860310244882
            ],
            [
              7.837988,
              48.636035
            ],
            [
              7.8017133227678865,
              48.56106447638774
            ],
            [
              7.801673,
              48.54758
            ],
            [
              7.813455,
              48.526341
            ],
            [
              7.813455,
              48.519468
            ],
            [
              7.788444,
              48.506343
            ],
            [
              7.785622914576703,
              48.504421725291415
            ],
            [
              7.765137,
              48.41001
            ],
            [
              7.7465422912844195,
              48.36937040163503
            ],
            [
              7.746896,
              48.368677
            ],
            [
              7.75196,
              48.355344
            ],
            [
              7.75072,
              48.341366
            ],
            [
              7.736974,
              48.326664
            ],
            [
              7.725019586664807,
              48.322331532414346
            ],
            [
              7.705664,
              48.280029
            ],
            [
              7.688307664348245,
              48.25601169162613
            ],
            [
              7.687158,
              48.252921
            ],
            [
              7.676616,
              48.2384
            ],
            [
              7.673416689120505,
              48.23540589376602
            ],
            [
              7.616602,
              48.156787
            ],
            [
              7.58418,
              48.064307
            ],
            [
              7.599344191128392,
              48.02581716975435
            ],
            [
              7.618945,
              48.002652
            ],
            [
              7.621116,
              47.97144
            ],
            [
              7.611607,
              47.959399
            ],
            [
              7.600459973802307,
              47.951460009768596
            ],
            [
              7.593262,
              47.905664
            ],
            [
              7.538574,
              47.773633
            ],
            [
              7.53666208143551,
              47.75285455481869
            ],
            [
              7.53833,
              47.748146
            ],
            [
              7.537813,
              47.731816
            ],
            [
              7.534370603958798,
              47.72795112011263
            ],
            [
              7.529395,
              47.673877
            ]
          ]
        ]
      }
    },
    {
      "type": "Feature",
      "properties": {
        "fid": null,
        "prob": 15,
        "warning": 0,
        "date": "1",
        "kind": "outlook",
        "hazard": "general",
        "title": "",
        "description": "",
        "hatched": false,
        "doubleHatch": false,
        "probability": ">50",
        "intensity": "3",
        "riskLabel": "Slight Risk"
      },
      "geometry": {
        "type": "Polygon",
        "coordinates": [
          [
            [
              11.462791,
              47.0486
            ],
            [
              11.50692689506089,
              46.994275479833775
            ],
            [
              11.527539,
              46.997412
            ],
            [
              11.563670311161223,
              46.99710583058261
            ],
            [
              11.572709,
              46.998915
            ],
            [
              11.59648,
              47.00044
            ],
            [
              11.624036478368543,
              46.9965942999005
            ],
            [
              11.625488,
              46.996582
            ],
            [
              11.634295115609357,
              46.99516263502191
            ],
            [
              11.64795,
              46.993257
            ],
            [
              11.648467,
              46.993257
            ],
            [
              11.649707,
              46.992998
            ],
            [
              11.657252,
              46.992533
            ],
            [
              11.664797,
              46.993257
            ],
            [
              11.683814,
              46.991913
            ],
            [
              11.69745436688404,
              46.98498381674842
            ],
            [
              11.699414,
              46.984668
            ],
            [
              11.771947574629108,
              46.98601463093844
            ],
            [
              11.777141,
              46.988296
            ],
            [
              11.787958419367222,
              46.989478782717995
            ],
            [
              11.844170466110452,
              47.00502556168308
            ],
            [
              11.857033,
              47.012015
            ],
            [
              11.899511,
              47.027725
            ],
            [
              11.943643,
              47.038164
            ],
            [
              11.966706976413366,
              47.038915949085876
            ],
            [
              11.969531,
              47.039697
            ],
            [
              12.0764755863697,
              47.06239737312516
            ],
            [
              12.116242,
              47.076559
            ],
            [
              12.133146,
              47.078832
            ],
            [
              12.180631,
              47.085215
            ],
            [
              12.204195,
              47.079686
            ],
            [
              12.203897,
              47.067012
            ],
            [
              12.203575,
              47.053331
            ],
            [
              12.182284,
              47.033616
            ],
            [
              12.164432587820704,
              47.02680750369973
            ],
            [
              12.130762,
              46.984766
            ],
            [
              12.154102,
              46.935254
            ],
            [
              12.221644285207233,
              46.87631384025559
            ],
            [
              12.250807,
              46.875615
            ],
            [
              12.26662,
              46.868148
            ],
            [
              12.275819,
              46.846289
            ],
            [
              12.276129,
              46.83399
            ],
            [
              12.274008062650184,
              46.82849197716735
            ],
            [
              12.319196141271329,
              46.77314278331294
            ],
            [
              12.326048,
              46.772495
            ],
            [
              12.342688,
              46.765131
            ],
            [
              12.351473,
              46.743246
            ],
            [
              12.357702598348416,
              46.7326763668923
            ],
            [
              12.388281,
              46.702637
            ],
            [
              12.469067276369122,
              46.67586729380131
            ],
            [
              12.469632,
              46.675799
            ],
            [
              12.499888,
              46.672139
            ],
            [
              12.508858952705285,
              46.66793860149205
            ],
            [
              12.59689133257266,
              46.654370437915524
            ],
            [
              12.62019,
              46.656481
            ],
            [
              12.669593,
              46.653019
            ],
            [
              12.671368,
              46.652466
            ],
            [
              12.679205,
              46.650022
            ],
            [
              12.681857686106852,
              46.64863907408734
            ],
            [
              12.699805,
              46.647461
            ],
            [
              12.729097810393753,
              46.64148339545846
            ],
            [
              12.732018,
              46.64227
            ],
            [
              12.739873,
              46.642994
            ],
            [
              12.7485,
              46.640996
            ],
            [
              12.773566,
              46.635191
            ],
            [
              12.784898615230167,
              46.63009646672311
            ],
            [
              12.805566,
              46.625879
            ],
            [
              12.960340584592947,
              46.60319747296194
            ],
            [
              13.064504,
              46.598035
            ],
            [
              13.146463,
              46.584961
            ],
            [
              13.1770681384306,
              46.57198504147814
            ],
            [
              13.331062592943322,
              46.55956352524155
            ],
            [
              13.373323,
              46.565789
            ],
            [
              13.417041,
              46.560492
            ],
            [
              13.478019,
              46.563567
            ],
            [
              13.484944,
              46.561733
            ],
            [
              13.493556380612393,
              46.55497460173852
            ],
            [
              13.547630264332065,
              46.54588283591976
            ],
            [
              13.549229,
              46.545842
            ],
            [
              13.553297778927744,
              46.54492992275848
            ],
            [
              13.7,
              46.520264
            ],
            [
              13.705971123289638,
              46.519454579555436
            ],
            [
              13.716093,
              46.518867
            ],
            [
              13.74038698767152,
              46.51478930923747
            ],
            [
              13.743945,
              46.514307
            ],
            [
              13.826695152165707,
              46.51139380230411
            ],
            [
              13.860683,
              46.51525
            ],
            [
              13.890862,
              46.511787
            ],
            [
              13.936813307522721,
              46.496781537932435
            ],
            [
              14.016509144670213,
              46.482728148459664
            ],
            [
              14.032456,
              46.484709
            ],
            [
              14.050026,
              46.484399
            ],
            [
              14.066355,
              46.48104
            ],
            [
              14.081032,
              46.47595
            ],
            [
              14.10594291058455,
              46.46110172730894
            ],
            [
              14.267285,
              46.440723
            ],
            [
              14.313743100970328,
              46.43682919649421
            ],
            [
              14.362151,
              46.435875
            ],
            [
              14.395844,
              46.440991
            ],
            [
              14.40649,
              46.439337
            ],
            [
              14.411244,
              46.434635
            ],
            [
              14.414448,
              46.429002
            ],
            [
              14.415266099400915,
              46.42832022606815
            ],
            [
              14.419922,
              46.42793
            ],
            [
              14.465918,
              46.416113
            ],
            [
              14.492566750702448,
              46.41677074883376
            ],
            [
              14.502194,
              46.418356
            ],
            [
              14.503612339203682,
              46.417004923529205
            ],
            [
              14.549805,
              46.399707
            ],
            [
              14.571183942553173,
              46.41005283505334
            ],
            [
              14.575368,
              46.419726
            ],
            [
              14.590148,
              46.434428
            ],
            [
              14.599863,
              46.437167
            ],
            [
              14.600362410080457,
              46.43719790249438
            ],
            [
              14.656441117828084,
              46.455627720946254
            ],
            [
              14.662081,
              46.459698
            ],
            [
              14.666629,
              46.460524
            ],
            [
              14.67005007556062,
              46.46010019598007
            ],
            [
              14.680176,
              46.463428
            ],
            [
              14.683482926019694,
              46.46496968008178
            ],
            [
              14.687093,
              46.471221
            ],
            [
              14.698772,
              46.480962
            ],
            [
              14.703733,
              46.487758
            ],
            [
              14.709727,
              46.492512
            ],
            [
              14.726367,
              46.497706
            ],
            [
              14.735255,
              46.493339
            ],
            [
              14.747305368648554,
              46.49472353244655
            ],
            [
              14.756738,
              46.499121
            ],
            [
              14.760582400946753,
              46.502368832567754
            ],
            [
              14.702913,
              46.782033
            ],
            [
              13.576953,
              47.300479
            ],
            [
              12.633582,
              47.417294
            ],
            [
              11.837201,
              47.324258
            ],
            [
              11.462791,
              47.0486
            ]
          ]
        ]
      }
    }
  ]
}