{
  "type": "FeatureCollection",
  "features": [
    {
      "type": "Feature",
      "properties": {
        "kind": "outlook",
        "hazard": "wind",
        "title": "",
        "description": "",
        "probability": "2",
        "intensity": "",
        "riskLabel": "2%",
        "hazardProbability": "2",
        "hatched": false,
        "doubleHatch": false
      },
      "geometry": {
        "type": "MultiPolygon",
        "coordinates": [
          [
            [
              [
                5.85752,
                51.030127
              ],
              [
                5.867188,
                51.005664
              ],
              [
                5.894727,
                50.984229
              ],
              [
                5.955078,
                50.972949
              ],
              [
                6.006836,
                50.949951
              ],
              [
                6.048438,
                50.904883
              ],
              [
                5.993945,
                50.750439
              ],
              [
                6.005957,
                50.732227
              ],
              [
                6.119434,
                50.679248
              ],
              [
                6.154492,
                50.637256
              ],
              [
                6.235938,
                50.59668
              ],
              [
                6.168457,
                50.545361
              ],
              [
                6.178711,
                50.52251
              ],
              [
                6.203027,
                50.499121
              ],
              [
                6.294922,
                50.485498
              ],
              [
                6.340918,
                50.451758
              ],
              [
                6.343652,
                50.400244
              ],
              [
                6.364453,
                50.316162
              ],
              [
                6.175098,
                50.232666
              ],
              [
                6.121289,
                50.139355
              ],
              [
                6.116504,
                50.120996
              ],
              [
                6.108301,
                50.094238
              ],
              [
                6.109766,
                50.034375
              ],
              [
                6.138184,
                49.974316
              ],
              [
                6.204883,
                49.915137
              ],
              [
                6.256055,
                49.872168
              ],
              [
                6.324609,
                49.837891
              ],
              [
                6.440918,
                49.805322
              ],
              [
                6.487305,
                49.798486
              ],
              [
                6.49375,
                49.754395
              ],
              [
                6.484766,
                49.707812
              ],
              [
                6.444629,
                49.682031
              ],
              [
                6.406738,
                49.644971
              ],
              [
                6.37832,
                49.599609
              ],
              [
                6.348438,
                49.512695
              ],
              [
                6.344336,
                49.452734
              ],
              [
                6.382227,
                49.458154
              ],
              [
                6.458105,
                49.442871
              ],
              [
                6.534277,
                49.394678
              ],
              [
                6.566309,
                49.346191
              ],
              [
                6.574707,
                49.319678
              ],
              [
                6.607617,
                49.290869
              ],
              [
                6.735449,
                49.160596
              ],
              [
                6.77627,
                49.15415
              ],
              [
                6.820703,
                49.173926
              ],
              [
                6.849512,
                49.201953
              ],
              [
                6.891211,
                49.20752
              ],
              [
                6.958301,
                49.194629
              ],
              [
                7.001465,
                49.179883
              ],
              [
                7.022168,
                49.123437
              ],
              [
                7.036719,
                49.112695
              ],
              [
                7.065723,
                49.124854
              ],
              [
                7.117383,
                49.127539
              ],
              [
                7.199902,
                49.113623
              ],
              [
                7.313379,
                49.129541
              ],
              [
                7.404199,
                49.153076
              ],
              [
                7.450586,
                49.152197
              ],
              [
                7.525488,
                49.086377
              ],
              [
                7.610938,
                49.061768
              ],
              [
                7.799219,
                49.041895
              ],
              [
                8.00127,
                49.010937
              ],
              [
                8.080664,
                48.985889
              ],
              [
                8.134863,
                48.973584
              ],
              [
                8.140332,
                48.886426
              ],
              [
                8.124023,
                48.873291
              ],
              [
                8.015054364248247,
                48.778676713103195
              ],
              [
                10.063477,
                49.130959
              ],
              [
                11.337891,
                49.816278
              ],
              [
                12.480469,
                50.798557
              ],
              [
                13.930664,
                52.193719
              ],
              [
                15.512695,
                52.915113
              ],
              [
                16.479492,
                53.806733
              ],
              [
                16.12843732982282,
                54.28069296781487
              ],
              [
                16.042773,
                54.266357
              ],
              [
                15.9,
                54.253955
              ],
              [
                15.288379,
                54.139893
              ],
              [
                14.715723,
                54.018311
              ],
              [
                14.38418,
                53.924707
              ],
              [
                14.249316,
                53.931934
              ],
              [
                14.211426,
                53.950342
              ],
              [
                14.038867,
                54.03457
              ],
              [
                13.827734,
                54.127246
              ],
              [
                13.82041,
                54.092822
              ],
              [
                13.827148,
                54.05957
              ],
              [
                13.872461,
                54.036279
              ],
              [
                13.92168,
                53.996631
              ],
              [
                13.902148,
                53.938965
              ],
              [
                13.925781,
                53.879053
              ],
              [
                14.04834,
                53.863086
              ],
              [
                14.172168,
                53.874365
              ],
              [
                14.213672,
                53.870752
              ],
              [
                14.350879,
                53.85874
              ],
              [
                14.558398,
                53.823193
              ],
              [
                14.564941,
                53.753516
              ],
              [
                14.552148,
                53.707324
              ],
              [
                14.571582,
                53.675879
              ],
              [
                14.583496,
                53.639355
              ],
              [
                14.487598,
                53.671875
              ],
              [
                14.258887,
                53.729639
              ],
              [
                14.25,
                53.731885
              ],
              [
                14.025,
                53.767432
              ],
              [
                13.950391,
                53.801367
              ],
              [
                13.865527,
                53.853369
              ],
              [
                13.822266,
                54.019043
              ],
              [
                13.724219,
                54.153223
              ],
              [
                13.448047,
                54.140869
              ],
              [
                13.147461,
                54.282715
              ],
              [
                13.028613,
                54.411035
              ],
              [
                12.898047,
                54.422656
              ],
              [
                12.779102,
                54.445703
              ],
              [
                12.575391,
                54.467383
              ],
              [
                12.378516,
                54.347021
              ],
              [
                12.296289,
                54.283789
              ],
              [
                12.168652,
                54.225879
              ],
              [
                12.111328,
                54.168311
              ],
              [
                11.796289,
                54.145459
              ],
              [
                11.700586,
                54.113525
              ],
              [
                11.461133,
                53.964746
              ],
              [
                11.399609,
                53.944629
              ],
              [
                11.104297,
                54.00918
              ],
              [
                10.917773,
                53.995312
              ],
              [
                10.85459,
                54.009814
              ],
              [
                10.810742,
                54.075146
              ],
              [
                11.008594,
                54.181152
              ],
              [
                11.064355,
                54.280518
              ],
              [
                11.013379,
                54.37915
              ],
              [
                10.955957,
                54.375684
              ],
              [
                10.731543,
                54.31626
              ],
              [
                10.360449,
                54.43833
              ],
              [
                10.212402,
                54.408936
              ],
              [
                10.170801,
                54.450195
              ],
              [
                10.143457,
                54.488428
              ],
              [
                9.868652,
                54.472461
              ],
              [
                9.941309,
                54.514648
              ],
              [
                10.028809,
                54.581299
              ],
              [
                10.022168,
                54.673926
              ],
              [
                9.953809,
                54.738281
              ],
              [
                9.892285,
                54.780615
              ],
              [
                9.745898,
                54.807178
              ],
              [
                9.739746,
                54.825537
              ],
              [
                9.725,
                54.825537
              ],
              [
                9.66123,
                54.834375
              ],
              [
                9.61582,
                54.85542
              ],
              [
                9.49873,
                54.84043
              ],
              [
                9.341992,
                54.806299
              ],
              [
                9.25498,
                54.808008
              ],
              [
                9.18584,
                54.844678
              ],
              [
                8.90293,
                54.896924
              ],
              [
                8.857227,
                54.901123
              ],
              [
                8.670703,
                54.90332
              ],
              [
                8.670313,
                54.903418
              ],
              [
                8.682324,
                54.791846
              ],
              [
                8.789648,
                54.695947
              ],
              [
                8.880957,
                54.593945
              ],
              [
                8.957227,
                54.53833
              ],
              [
                8.951855,
                54.467578
              ],
              [
                8.831152,
                54.427539
              ],
              [
                8.648047,
                54.397656
              ],
              [
                8.625781,
                54.353955
              ],
              [
                8.644922,
                54.294971
              ],
              [
                8.736035,
                54.295215
              ],
              [
                8.780371,
                54.313037
              ],
              [
                8.851562,
                54.299561
              ],
              [
                8.906641,
                54.260791
              ],
              [
                8.903516,
                54.000293
              ],
              [
                8.92041,
                53.965332
              ],
              [
                8.978125,
                53.926221
              ],
              [
                9.069629,
                53.900928
              ],
              [
                9.216406,
                53.891211
              ],
              [
                9.312012,
                53.859131
              ],
              [
                9.63125,
                53.600195
              ],
              [
                9.783984,
                53.554639
              ],
              [
                9.673145,
                53.565625
              ],
              [
                9.585352,
                53.600488
              ],
              [
                9.321973,
                53.813477
              ],
              [
                9.205566,
                53.855957
              ],
              [
                8.897754,
                53.835693
              ],
              [
                8.618945,
                53.875
              ],
              [
                8.575586,
                53.838477
              ],
              [
                8.528418,
                53.781104
              ],
              [
                8.50625,
                53.670752
              ],
              [
                8.538477,
                53.556885
              ],
              [
                8.495215,
                53.394238
              ],
              [
                8.492676,
                53.514355
              ],
              [
                8.451367,
                53.551709
              ],
              [
                8.333887,
                53.606201
              ],
              [
                8.301563,
                53.584131
              ],
              [
                8.279004,
                53.511182
              ],
              [
                8.245215,
                53.445312
              ],
              [
                8.200781,
                53.432422
              ],
              [
                8.108496,
                53.467676
              ],
              [
                8.16709,
                53.543408
              ],
              [
                8.009277,
                53.690723
              ],
              [
                7.629199,
                53.697266
              ],
              [
                7.285254,
                53.681348
              ],
              [
                7.206445,
                53.654541
              ],
              [
                7.107129,
                53.556982
              ],
              [
                7.074316,
                53.477637
              ],
              [
                7.05332,
                53.37583
              ],
              [
                7.152051,
                53.326953
              ],
              [
                7.197266,
                53.282275
              ],
              [
                7.188965,
                53.187207
              ],
              [
                7.189941,
                52.999512
              ],
              [
                7.179492,
                52.966211
              ],
              [
                7.11709,
                52.887012
              ],
              [
                7.050879,
                52.744775
              ],
              [
                7.033008,
                52.651367
              ],
              [
                7.013184,
                52.633545
              ],
              [
                6.748438,
                52.634082
              ],
              [
                6.710742,
                52.617871
              ],
              [
                6.705371,
                52.597656
              ],
              [
                6.71875,
                52.573584
              ],
              [
                6.712402,
                52.549658
              ],
              [
                6.691602,
                52.530176
              ],
              [
                6.70293,
                52.499219
              ],
              [
                6.748828,
                52.464014
              ],
              [
                6.83252,
                52.442285
              ],
              [
                6.92207,
                52.440283
              ],
              [
                6.968164,
                52.444092
              ],
              [
                7.001855,
                52.418994
              ],
              [
                7.035156,
                52.380225
              ],
              [
                7.032617,
                52.331494
              ],
              [
                7.019629,
                52.266016
              ],
              [
                6.977246,
                52.205518
              ],
              [
                6.855078,
                52.135791
              ],
              [
                6.800391,
                52.11123
              ],
              [
                6.749023,
                52.098682
              ],
              [
                6.724512,
                52.080225
              ],
              [
                6.712988,
                52.056885
              ],
              [
                6.715625,
                52.036182
              ],
              [
                6.802441,
                51.980176
              ],
              [
                6.800391,
                51.967383
              ],
              [
                6.775195,
                51.938281
              ],
              [
                6.741797,
                51.910889
              ],
              [
                6.517578,
                51.853955
              ],
              [
                6.425,
                51.858398
              ],
              [
                6.372168,
                51.830029
              ],
              [
                6.355664,
                51.824658
              ],
              [
                6.29707,
                51.850732
              ],
              [
                6.166504,
                51.880762
              ],
              [
                6.117188,
                51.87041
              ],
              [
                6.089844,
                51.853955
              ],
              [
                6.007617,
                51.833984
              ],
              [
                5.94873,
                51.802686
              ],
              [
                5.948535,
                51.762402
              ],
              [
                6.052734,
                51.658252
              ],
              [
                6.089355,
                51.637793
              ],
              [
                6.091113,
                51.598926
              ],
              [
                6.141602,
                51.550098
              ],
              [
                6.193262,
                51.488916
              ],
              [
                6.198828,
                51.45
              ],
              [
                6.192871,
                51.410596
              ],
              [
                6.166211,
                51.354834
              ],
              [
                6.075879,
                51.224121
              ],
              [
                6.074805,
                51.199023
              ],
              [
                6.082422,
                51.17998
              ],
              [
                6.113379,
                51.174707
              ],
              [
                6.136914,
                51.164844
              ],
              [
                6.12998,
                51.147412
              ],
              [
                5.961035,
                51.056689
              ],
              [
                5.939258,
                51.04082
              ],
              [
                5.868359,
                51.045312
              ],
              [
                5.85752,
                51.030127
              ]
            ]
          ],
          [
            [
              [
                8.284668,
                54.76709
              ],
              [
                8.307715,
                54.786963
              ],
              [
                8.347363,
                54.847607
              ],
              [
                8.600586,
                54.865381
              ],
              [
                8.62959,
                54.891748
              ],
              [
                8.379883,
                54.899854
              ],
              [
                8.371191,
                54.929395
              ],
              [
                8.39043,
                54.986279
              ],
              [
                8.404102,
                55.014746
              ],
              [
                8.451465,
                55.055371
              ],
              [
                8.405176,
                55.05874
              ],
              [
                8.295703,
                54.908301
              ],
              [
                8.284668,
                54.76709
              ]
            ]
          ],
          [
            [
              [
                8.400391,
                54.714111
              ],
              [
                8.453809,
                54.691064
              ],
              [
                8.548926,
                54.688184
              ],
              [
                8.587891,
                54.712695
              ],
              [
                8.573438,
                54.74873
              ],
              [
                8.509961,
                54.760303
              ],
              [
                8.468164,
                54.757422
              ],
              [
                8.417676,
                54.738672
              ],
              [
                8.400391,
                54.714111
              ]
            ]
          ],
          [
            [
              [
                11.011719,
                54.466162
              ],
              [
                11.070703,
                54.456006
              ],
              [
                11.129297,
                54.416016
              ],
              [
                11.282813,
                54.417969
              ],
              [
                11.280273,
                54.438379
              ],
              [
                11.233594,
                54.50127
              ],
              [
                11.084961,
                54.533398
              ],
              [
                11.043457,
                54.515479
              ],
              [
                11.011719,
                54.466162
              ]
            ]
          ],
          [
            [
              [
                13.156348,
                54.396924
              ],
              [
                13.162109,
                54.364551
              ],
              [
                13.190039,
                54.325635
              ],
              [
                13.364355,
                54.24585
              ],
              [
                13.414551,
                54.249561
              ],
              [
                13.482031,
                54.337402
              ],
              [
                13.594922,
                54.338184
              ],
              [
                13.707324,
                54.281152
              ],
              [
                13.73418,
                54.31543
              ],
              [
                13.70918,
                54.382715
              ],
              [
                13.601855,
                54.425146
              ],
              [
                13.580469,
                54.463965
              ],
              [
                13.60332,
                54.488184
              ],
              [
                13.670703,
                54.535449
              ],
              [
                13.657617,
                54.55957
              ],
              [
                13.636035,
                54.577002
              ],
              [
                13.491211,
                54.615381
              ],
              [
                13.450098,
                54.649609
              ],
              [
                13.422754,
                54.699316
              ],
              [
                13.336816,
                54.697119
              ],
              [
                13.239941,
                54.638428
              ],
              [
                13.231445,
                54.582764
              ],
              [
                13.17666,
                54.544238
              ],
              [
                13.18125,
                54.508984
              ],
              [
                13.156348,
                54.396924
              ]
            ]
          ]
        ]
      }
    },
    {
      "type": "Feature",
      "properties": {
        "kind": "outlook",
        "hazard": "wind",
        "title": "",
        "description": "",
        "probability": "2",
        "intensity": "",
        "riskLabel": "2%",
        "hazardProbability": "2",
        "hatched": false,
        "doubleHatch": false
      },
      "geometry": {
        "type": "Polygon",
        "coordinates": [
          [
            [
              11.7978787261957,
              46.992222479602624
            ],
            [
              11.969531,
              47.039697
            ],
            [
              12.169434,
              47.082129
            ],
            [
              12.197168,
              47.075
            ],
            [
              12.20127,
              47.060889
            ],
            [
              12.165527,
              47.028174
            ],
            [
              12.130762,
              46.984766
            ],
            [
              12.154102,
              46.935254
            ],
            [
              12.267969,
              46.835889
            ],
            [
              12.330078,
              46.759814
            ],
            [
              12.388281,
              46.702637
            ],
            [
              12.479199,
              46.67251
            ],
            [
              12.598633,
              46.654102
            ],
            [
              12.699805,
              46.647461
            ],
            [
              12.805566,
              46.625879
            ],
            [
              13.16875,
              46.572656
            ],
            [
              13.351562,
              46.55791
            ],
            [
              13.490039,
              46.555566
            ],
            [
              13.7,
              46.520264
            ],
            [
              13.743945,
              46.514307
            ],
            [
              13.831348,
              46.51123
            ],
            [
              13.928809,
              46.498193
            ],
            [
              14.019629,
              46.482178
            ],
            [
              14.099512,
              46.461914
            ],
            [
              14.267285,
              46.440723
            ],
            [
              14.419922,
              46.42793
            ],
            [
              14.465918,
              46.416113
            ],
            [
              14.503516,
              46.417041
            ],
            [
              14.549805,
              46.399707
            ],
            [
              14.577148,
              46.412939
            ],
            [
              14.596973,
              46.436084
            ],
            [
              14.680176,
              46.463428
            ],
            [
              14.756738,
              46.499121
            ],
            [
              14.810547,
              46.54458
            ],
            [
              14.840625,
              46.580469
            ],
            [
              14.893262,
              46.605908
            ],
            [
              14.949414,
              46.613232
            ],
            [
              15.000684,
              46.625977
            ],
            [
              15.216992,
              46.642969
            ],
            [
              15.439258,
              46.629639
            ],
            [
              15.545313,
              46.654639
            ],
            [
              15.632617,
              46.698437
            ],
            [
              15.760254,
              46.710742
            ],
            [
              15.766895,
              46.711279
            ],
            [
              15.957617,
              46.677637
            ],
            [
              15.972266,
              46.697217
            ],
            [
              15.980469,
              46.705859
            ],
            [
              15.976855,
              46.801367
            ],
            [
              16.037207,
              46.844824
            ],
            [
              16.093066,
              46.863281
            ],
            [
              16.283594,
              46.857275
            ],
            [
              16.308496,
              46.827979
            ],
            [
              16.318457,
              46.78252
            ],
            [
              16.335449,
              46.721631
            ],
            [
              16.367188,
              46.704785
            ],
            [
              16.38457,
              46.680811
            ],
            [
              16.38125,
              46.638672
            ],
            [
              16.418457,
              46.607227
            ],
            [
              16.505664,
              46.52207
            ],
            [
              16.516211,
              46.499902
            ],
            [
              16.569922,
              46.48501
            ],
            [
              16.748047,
              46.416406
            ],
            [
              16.871484,
              46.339307
            ],
            [
              16.939941,
              46.253662
            ],
            [
              17.032715,
              46.187305
            ],
            [
              17.149609,
              46.140332
            ],
            [
              17.242188,
              46.076611
            ],
            [
              17.310645,
              45.996143
            ],
            [
              17.406348,
              45.951074
            ],
            [
              17.529199,
              45.941309
            ],
            [
              17.607031,
              45.91377
            ],
            [
              17.639648,
              45.868359
            ],
            [
              17.706445,
              45.827246
            ],
            [
              17.807129,
              45.79043
            ],
            [
              17.963867,
              45.770264
            ],
            [
              18.263965,
              45.765479
            ],
            [
              18.290625,
              45.764453
            ],
            [
              18.358301,
              45.753027
            ],
            [
              18.437305,
              45.767334
            ],
            [
              18.533594,
              45.796143
            ],
            [
              18.564648,
              45.813281
            ],
            [
              18.666016,
              45.907471
            ],
            [
              18.721777,
              45.899365
            ],
            [
              18.833008,
              45.91084
            ],
            [
              18.900293,
              45.931738
            ],
            [
              18.905371,
              45.931738
            ],
            [
              18.927832,
              45.931396
            ],
            [
              19.015723,
              45.959717
            ],
            [
              19.047656,
              45.982666
            ],
            [
              19.066211,
              46.009521
            ],
            [
              19.087305,
              46.016162
            ],
            [
              19.146289,
              45.987012
            ],
            [
              19.208398,
              45.984424
            ],
            [
              19.278125,
              46.002881
            ],
            [
              19.330273,
              46.028516
            ],
            [
              19.392871,
              46.049805
            ],
            [
              19.421289,
              46.064453
            ],
            [
              19.45752,
              46.087354
            ],
            [
              19.530762,
              46.155176
            ],
            [
              19.613477,
              46.169189
            ],
            [
              19.724512,
              46.151904
            ],
            [
              19.844434,
              46.145898
            ],
            [
              19.934082,
              46.161475
            ],
            [
              20.02975944053461,
              46.15323478127566
            ],
            [
              19.731445,
              46.565942
            ],
            [
              18.632813,
              46.987279
            ],
            [
              17.841797,
              48.552524
            ],
            [
              17.666016,
              49.360464
            ],
            [
              17.973633,
              50.267838
            ],
            [
              17.138672,
              50.715156
            ],
            [
              16.040039,
              50.519976
            ],
            [
              15.117188,
              49.645847
            ],
            [
              14.414063,
              49.130959
            ],
            [
              14.018555,
              48.436034
            ],
            [
              13.183594,
              47.435055
            ],
            [
              11.7978787261957,
              46.992222479602624
            ]
          ]
        ]
      }
    }
  ]
}