{
  "type": "FeatureCollection",
  "features": [
    {
      "type": "Feature",
      "properties": {
        "kind": "outlook",
        "hazard": "tornado",
        "title": "",
        "description": "",
        "probability": "marginal",
        "intensity": "",
        "riskLabel": "Marginal Tornado Potential",
        "hazardProbability": "marginal",
        "hatched": false,
        "doubleHatch": false
      },
      "geometry": {
        "type": "Polygon",
        "coordinates": [
          [
            [
              7.050534454056689,
              52.742974130016634
            ],
            [
              7.492676,
              52.592829
            ],
            [
              8.920898,
              52.445757
            ],
            [
              10.107422,
              52.606175
            ],
            [
              11.052246,
              52.925256
            ],
            [
              11.293945,
              53.451874
            ],
            [
              10.656738,
              53.972041
            ],
            [
              9.602051,
              54.332341
            ],
            [
              8.632755149456033,
              54.3676430133557
            ],
            [
              8.625781,
              54.353955
            ],
            [
              8.644922,
              54.294971
            ],
            [
              8.736035,
              54.295215
            ],
            [
              8.780371,
              54.313037
            ],
            [
              8.851562,
              54.299561
            ],
            [
              8.906641,
              54.260791
            ],
            [
              8.903516,
              54.000293
            ],
            [
              8.92041,
              53.965332
            ],
            [
              8.978125,
              53.926221
            ],
            [
              9.069629,
              53.900928
            ],
            [
              9.216406,
              53.891211
            ],
            [
              9.312012,
              53.859131
            ],
            [
              9.63125,
              53.600195
            ],
            [
              9.783984,
              53.554639
            ],
            [
              9.673145,
              53.565625
            ],
            [
              9.585352,
              53.600488
            ],
            [
              9.321973,
              53.813477
            ],
            [
              9.205566,
              53.855957
            ],
            [
              8.897754,
              53.835693
            ],
            [
              8.618945,
              53.875
            ],
            [
              8.575586,
              53.838477
            ],
            [
              8.528418,
              53.781104
            ],
            [
              8.50625,
              53.670752
            ],
            [
              8.538477,
              53.556885
            ],
            [
              8.495215,
              53.394238
            ],
            [
              8.492676,
              53.514355
            ],
            [
              8.451367,
              53.551709
            ],
            [
              8.333887,
              53.606201
            ],
            [
              8.301563,
              53.584131
            ],
            [
              8.279004,
              53.511182
            ],
            [
              8.245215,
              53.445312
            ],
            [
              8.200781,
              53.432422
            ],
            [
              8.108496,
              53.467676
            ],
            [
              8.16709,
              53.543408
            ],
            [
              8.009277,
              53.690723
            ],
            [
              7.629199,
              53.697266
            ],
            [
              7.285254,
              53.681348
            ],
            [
              7.206445,
              53.654541
            ],
            [
              7.107129,
              53.556982
            ],
            [
              7.074316,
              53.477637
            ],
            [
              7.05332,
              53.37583
            ],
            [
              7.152051,
              53.326953
            ],
            [
              7.197266,
              53.282275
            ],
            [
              7.188965,
              53.187207
            ],
            [
              7.189941,
              52.999512
            ],
            [
              7.179492,
              52.966211
            ],
            [
              7.11709,
              52.887012
            ],
            [
              7.050879,
              52.744775
            ],
            [
              7.050534454056689,
              52.742974130016634
            ]
          ]
        ]
      }
    }
  ]
}