{
  "type": "FeatureCollection",
  "features": [
    {
      "type": "Feature",
      "geometry": {
        "type": "Point",
        "coordinates": [
          3.357804,
          40.691641
        ]
      },
      "properties": {
        "strike_time": "2026-10-04 00:45:00.167900928",
        "hour": 0,
        "server": 1,
        "mds": 10879,
        "mcg": 212,
        "sta": 80
      }
    },
    {
      "type": "Feature",
      "geometry": {
        "type": "Point",
        "coordinates": [
          3.308348,
          40.636545
        ]
      },
      "properties": {
        "strike_time": "2026-10-04 00:45:00.167950592",
        "hour": 0,
        "server": 1,
        "mds": 5526,
        "mcg": 258,
        "sta": 67
      }
    },
    {
      "type": "Feature",
      "geometry": {
        "type": "Point",
        "coordinates": [
          3.330721,
          40.667952
        ]
      },
      "properties": {
        "strike_time": "2026-10-04 00:45:00.167959040",
        "hour": 0,
        "server": 1,
        "mds": 4354,
        "mcg": 245,
        "sta": 52
      }
    },
    {
      "type": "Feature",
      "geometry": {
        "type": "Point",
        "coordinates": [
          3.365837,
          40.71738
        ]
      },
      "properties": {
        "strike_time": "2026-10-04 00:45:00.167974912",
        "hour": 0,
        "server": 1,
        "mds": 11550,
        "mcg": 250,
        "sta": 25
      }
    },
    {
      "type": "Feature",
      "geometry": {
        "type": "Point",
        "coordinates": [
          28.746053,
          34.622652
        ]
      },
      "properties": {
        "strike_time": "2026-10-04 00:45:03.745617920",
        "hour": 0,
        "server": 4,
        "mds": 7653,
        "mcg": 216,
        "sta": 24
      }
    },
    {
      "type": "Feature",
      "geometry": {
        "type": "Point",
        "coordinates": [
          3.351487,
          40.65103
        ]
      },
      "properties": {
        "strike_time": "2026-10-04 00:45:00.167899648",
        "hour": 0,
        "server": 11,
        "mds": 14019,
        "mcg": 235,
        "sta": 87
      }
    },
    {
      "type": "Feature",
      "geometry": {
        "type": "Point",
        "coordinates": [
          3.320591,
          40.652001
        ]
      },
      "properties": {
        "strike_time": "2026-10-04 00:45:00.167960832",
        "hour": 0,
        "server": 11,
        "mds": 8346,
        "mcg": 247,
        "sta": 75
      }
    },
    {
      "type": "Feature",
      "geometry": {
        "type": "Point",
        "coordinates": [
          3.253088,
          40.487477
        ]
      },
      "properties": {
        "strike_time": "2026-10-04 00:45:05.279961856",
        "hour": 0,
        "server": 11,
        "mds": 8483,
        "mcg": 192,
        "sta": 112
      }
    },
    {
      "type": "Feature",
      "geometry": {
        "type": "Point",
        "coordinates": [
          3.251146,
          40.490746
        ]
      },
      "properties": {
        "strike_time": "2026-10-04 00:45:05.279961088",
        "hour": 0,
        "server": 11,
        "mds": 6597,
        "mcg": 252,
        "sta": 159
      }
    },
    {
      "type": "Feature",
      "geometry": {
        "type": "Point",
        "coordinates": [
          3.246434,
          40.722662
        ]
      },
      "properties": {
        "strike_time": "2026-10-04 00:45:05.296229120",
        "hour": 0,
        "server": 11,
        "mds": 5129,
        "mcg": 254,
        "sta": 117
      }
    },
    {
      "type": "Feature",
      "geometry": {
        "type": "Point",
        "coordinates": [
          3.250965,
          40.519842
        ]
      },
      "properties": {
        "strike_time": "2026-10-04 00:45:05.327622656",
        "hour": 0,
        "server": 11,
        "mds": 4857,
        "mcg": 224,
        "sta": 155
      }
    },
    {
      "type": "Feature",
      "geometry": {
        "type": "Point",
        "coordinates": [
          3.263057,
          40.502623
        ]
      },
      "properties": {
        "strike_time": "2026-10-04 00:45:05.327620096",
        "hour": 0,
        "server": 11,
        "mds": 14916,
        "mcg": 181,
        "sta": 157
      }
    },
    {
      "type": "Feature",
      "geometry": {
        "type": "Point",
        "coordinates": [
          3.256043,
          40.449406
        ]
      },
      "properties": {
        "strike_time": "2026-10-04 00:45:10.656475648",
        "hour": 0,
        "server": 11,
        "mds": 12906,
        "mcg": 206,
        "sta": 90
      }
    },
    {
      "type": "Feature",
      "geometry": {
        "type": "Point",
        "coordinates": [
          3.42881,
          40.575695
        ]
      },
      "properties": {
        "strike_time": "2026-10-04 00:45:10.656551424",
        "hour": 0,
        "server": 11,
        "mds": 14810,
        "mcg": 217,
        "sta": 113
      }
    },
    {
      "type": "Feature",
      "geometry": {
        "type": "Point",
        "coordinates": [
          3.278549,
          40.466789
        ]
      },
      "properties": {
        "strike_time": "2026-10-04 00:45:10.656549120",
        "hour": 0,
        "server": 11,
        "mds": 10643,
        "mcg": 159,
        "sta": 99
      }
    },
    {
      "type": "Feature",
      "geometry": {
        "type": "Point",
        "coordinates": [
          3.262114,
          40.48077
        ]
      },
      "properties": {
        "strike_time": "2026-10-04 00:45:10.656546304",
        "hour": 0,
        "server": 11,
        "mds": 8102,
        "mcg": 159,
        "sta": 85
      }
    },
    {
      "type": "Feature",
      "geometry": {
        "type": "Point",
        "coordinates": [
          3.283957,
          40.4805
        ]
      },
      "properties": {
        "strike_time": "2026-10-04 00:45:10.676323584",
        "hour": 0,
        "server": 11,
        "mds": 10337,
        "mcg": 182,
        "sta": 75
      }
    },
    {
      "type": "Feature",
      "geometry": {
        "type": "Point",
        "coordinates": [
          3.284511,
          40.462981
        ]
      },
      "properties": {
        "strike_time": "2026-10-04 00:45:10.676330496",
        "hour": 0,
        "server": 11,
        "mds": 3656,
        "mcg": 244,
        "sta": 83
      }
    },
    {
      "type": "Feature",
      "geometry": {
        "type": "Point",
        "coordinates": [
          3.221633,
          41.031383
        ]
      },
      "properties": {
        "strike_time": "2026-10-04 00:45:10.879706880",
        "hour": 0,
        "server": 11,
        "mds": 8378,
        "mcg": 217,
        "sta": 219
      }
    },
    {
      "type": "Feature",
      "geometry": {
        "type": "Point",
        "coordinates": [
          2.153646,
          39.612633
        ]
      },
      "properties": {
        "strike_time": "2026-10-04 00:45:11.478925568",
        "hour": 0,
        "server": 11,
        "mds": 10806,
        "mcg": 203,
        "sta": 129
      }
    },
    {
      "type": "Feature",
      "geometry": {
        "type": "Point",
        "coordinates": [
          2.113273,
          39.57501
        ]
      },
      "properties": {
        "strike_time": "2026-10-04 00:45:11.478968576",
        "hour": 0,
        "server": 11,
        "mds": 2714,
        "mcg": 211,
        "sta": 42
      }
    },
    {
      "type": "Feature",
      "geometry": {
        "type": "Point",
        "coordinates": [
          3.347157,
          40.585691
        ]
      },
      "properties": {
        "strike_time": "2026-10-04 00:45:11.928101120",
        "hour": 0,
        "server": 11,
        "mds": 9249,
        "mcg": 224,
        "sta": 72
      }
    },
    {
      "type": "Feature",
      "geometry": {
        "type": "Point",
        "coordinates": [
          3.362284,
          40.559604
        ]
      },
      "properties": {
        "strike_time": "2026-10-04 00:45:17.138773760",
        "hour": 0,
        "server": 11,
        "mds": 5993,
        "mcg": 208,
        "sta": 142
      }
    },
    {
      "type": "Feature",
      "geometry": {
        "type": "Point",
        "coordinates": [
          3.167602,
          41.228109
        ]
      },
      "properties": {
        "strike_time": "2026-10-04 00:45:18.711938560",
        "hour": 0,
        "server": 11,
        "mds": 8469,
        "mcg": 208,
        "sta": 227
      }
    },
    {
      "type": "Feature",
      "geometry": {
        "type": "Point",
        "coordinates": [
          3.168227,
          41.234275
        ]
      },
      "properties": {
        "strike_time": "2026-10-04 00:45:18.711948800",
        "hour": 0,
        "server": 11,
        "mds": 5350,
        "mcg": 205,
        "sta": 270
      }
    },
    {
      "type": "Feature",
      "geometry": {
        "type": "Point",
        "coordinates": [
          3.351487,
          40.65103
        ]
      },
      "properties": {
        "strike_time": "2026-10-04 00:45:00.167899648",
        "hour": 0,
        "server": 12,
        "mds": 14019,
        "mcg": 235,
        "sta": 87
      }
    },
    {
      "type": "Feature",
      "geometry": {
        "type": "Point",
        "coordinates": [
          3.320591,
          40.652001
        ]
      },
      "properties": {
        "strike_time": "2026-10-04 00:45:00.167960832",
        "hour": 0,
        "server": 12,
        "mds": 8346,
        "mcg": 247,
        "sta": 75
      }
    },
    {
      "type": "Feature",
      "geometry": {
        "type": "Point",
        "coordinates": [
          3.288024,
          41.045453
        ]
      },
      "properties": {
        "strike_time": "2026-10-04 00:45:02.624324864",
        "hour": 0,
        "server": 12,
        "mds": 4789,
        "mcg": 204,
        "sta": 119
      }
    },
    {
      "type": "Feature",
      "geometry": {
        "type": "Point",
        "coordinates": [
          3.253088,
          40.487477
        ]
      },
      "properties": {
        "strike_time": "2026-10-04 00:45:05.279961856",
        "hour": 0,
        "server": 12,
        "mds": 8483,
        "mcg": 192,
        "sta": 111
      }
    },
    {
      "type": "Feature",
      "geometry": {
        "type": "Point",
        "coordinates": [
          3.251146,
          40.490746
        ]
      },
      "properties": {
        "strike_time": "2026-10-04 00:45:05.279961088",
        "hour": 0,
        "server": 12,
        "mds": 6597,
        "mcg": 252,
        "sta": 158
      }
    },
    {
      "type": "Feature",
      "geometry": {
        "type": "Point",
        "coordinates": [
          3.246434,
          40.722662
        ]
      },
      "properties": {
        "strike_time": "2026-10-04 00:45:05.296229120",
        "hour": 0,
        "server": 12,
        "mds": 5129,
        "mcg": 254,
        "sta": 128
      }
    },
    {
      "type": "Feature",
      "geometry": {
        "type": "Point",
        "coordinates": [
          3.250965,
          40.519842
        ]
      },
      "properties": {
        "strike_time": "2026-10-04 00:45:05.327622656",
        "hour": 0,
        "server": 12,
        "mds": 4857,
        "mcg": 224,
        "sta": 145
      }
    },
    {
      "type": "Feature",
      "geometry": {
        "type": "Point",
        "coordinates": [
          3.263057,
          40.502623
        ]
      },
      "properties": {
        "strike_time": "2026-10-04 00:45:05.327620096",
        "hour": 0,
        "server": 12,
        "mds": 14916,
        "mcg": 181,
        "sta": 168
      }
    },
    {
      "type": "Feature",
      "geometry": {
        "type": "Point",
        "coordinates": [
          3.256043,
          40.449406
        ]
      },
      "properties": {
        "strike_time": "2026-10-04 00:45:10.656475648",
        "hour": 0,
        "server": 12,
        "mds": 12906,
        "mcg": 206,
        "sta": 90
      }
    },
    {
      "type": "Feature",
      "geometry": {
        "type": "Point",
        "coordinates": [
          3.42881,
          40.575695
        ]
      },
      "properties": {
        "strike_time": "2026-10-04 00:45:10.656551424",
        "hour": 0,
        "server": 12,
        "mds": 14810,
        "mcg": 217,
        "sta": 113
      }
    },
    {
      "type": "Feature",
      "geometry": {
        "type": "Point",
        "coordinates": [
          3.278549,
          40.466789
        ]
      },
      "properties": {
        "strike_time": "2026-10-04 00:45:10.656549120",
        "hour": 0,
        "server": 12,
        "mds": 10643,
        "mcg": 159,
        "sta": 99
      }
    },
    {
      "type": "Feature",
      "geometry": {
        "type": "Point",
        "coordinates": [
          3.262114,
          40.48077
        ]
      },
      "properties": {
        "strike_time": "2026-10-04 00:45:10.656546304",
        "hour": 0,
        "server": 12,
        "mds": 8102,
        "mcg": 159,
        "sta": 85
      }
    },
    {
      "type": "Feature",
      "geometry": {
        "type": "Point",
        "coordinates": [
          3.283957,
          40.4805
        ]
      },
      "properties": {
        "strike_time": "2026-10-04 00:45:10.676323584",
        "hour": 0,
        "server": 12,
        "mds": 10337,
        "mcg": 182,
        "sta": 68
      }
    },
    {
      "type": "Feature",
      "geometry": {
        "type": "Point",
        "coordinates": [
          3.284511,
          40.462981
        ]
      },
      "properties": {
        "strike_time": "2026-10-04 00:45:10.676330496",
        "hour": 0,
        "server": 12,
        "mds": 3656,
        "mcg": 244,
        "sta": 83
      }
    },
    {
      "type": "Feature",
      "geometry": {
        "type": "Point",
        "coordinates": [
          3.250624,
          40.48903
        ]
      },
      "properties": {
        "strike_time": "2026-10-04 00:45:10.676332800",
        "hour": 0,
        "server": 12,
        "mds": 6028,
        "mcg": 255,
        "sta": 70
      }
    },
    {
      "type": "Feature",
      "geometry": {
        "type": "Point",
        "coordinates": [
          3.221633,
          41.031383
        ]
      },
      "properties": {
        "strike_time": "2026-10-04 00:45:10.879706880",
        "hour": 0,
        "server": 12,
        "mds": 8378,
        "mcg": 217,
        "sta": 225
      }
    },
    {
      "type": "Feature",
      "geometry": {
        "type": "Point",
        "coordinates": [
          3.208224,
          41.002006
        ]
      },
      "properties": {
        "strike_time": "2026-10-04 00:45:10.879695360",
        "hour": 0,
        "server": 12,
        "mds": 9457,
        "mcg": 193,
        "sta": 79
      }
    },
    {
      "type": "Feature",
      "geometry": {
        "type": "Point",
        "coordinates": [
          2.153625,
          39.612592
        ]
      },
      "properties": {
        "strike_time": "2026-10-04 00:45:11.478923520",
        "hour": 0,
        "server": 12,
        "mds": 10806,
        "mcg": 203,
        "sta": 89
      }
    },
    {
      "type": "Feature",
      "geometry": {
        "type": "Point",
        "coordinates": [
          3.347157,
          40.585691
        ]
      },
      "properties": {
        "strike_time": "2026-10-04 00:45:11.928101120",
        "hour": 0,
        "server": 12,
        "mds": 9249,
        "mcg": 224,
        "sta": 72
      }
    },
    {
      "type": "Feature",
      "geometry": {
        "type": "Point",
        "coordinates": [
          3.224649,
          40.552318
        ]
      },
      "properties": {
        "strike_time": "2026-10-04 00:45:16.947965184",
        "hour": 0,
        "server": 12,
        "mds": 3899,
        "mcg": 219,
        "sta": 146
      }
    },
    {
      "type": "Feature",
      "geometry": {
        "type": "Point",
        "coordinates": [
          3.164742,
          41.229422
        ]
      },
      "properties": {
        "strike_time": "2026-10-04 00:45:18.711939328",
        "hour": 0,
        "server": 12,
        "mds": 8488,
        "mcg": 213,
        "sta": 215
      }
    },
    {
      "type": "Feature",
      "geometry": {
        "type": "Point",
        "coordinates": [
          3.155428,
          41.229296
        ]
      },
      "properties": {
        "strike_time": "2026-10-04 00:45:18.711946496",
        "hour": 0,
        "server": 12,
        "mds": 6698,
        "mcg": 205,
        "sta": 266
      }
    }
  ]
}