{
  "type": "FeatureCollection",
  "features": [
    {
      "type": "Feature",
      "properties": {
        "kind": "outlook",
        "hazard": "hail",
        "title": "",
        "description": "",
        "probability": "2",
        "intensity": "",
        "riskLabel": "2%",
        "hazardProbability": "2",
        "hatched": false,
        "doubleHatch": false
      },
      "geometry": {
        "type": "Polygon",
        "coordinates": [
          [
            [
              5.85752,
              51.030127
            ],
            [
              5.867188,
              51.005664
            ],
            [
              5.894727,
              50.984229
            ],
            [
              5.955078,
              50.972949
            ],
            [
              6.006836,
              50.949951
            ],
            [
              6.048438,
              50.904883
            ],
            [
              5.993945,
              50.750439
            ],
            [
              6.005957,
              50.732227
            ],
            [
              6.119434,
              50.679248
            ],
            [
              6.154492,
              50.637256
            ],
            [
              6.235938,
              50.59668
            ],
            [
              6.168457,
              50.545361
            ],
            [
              6.178711,
              50.52251
            ],
            [
              6.203027,
              50.499121
            ],
            [
              6.294922,
              50.485498
            ],
            [
              6.340918,
              50.451758
            ],
            [
              6.343652,
              50.400244
            ],
            [
              6.364453,
              50.316162
            ],
            [
              6.175098,
              50.232666
            ],
            [
              6.121289,
              50.139355
            ],
            [
              6.116504,
              50.120996
            ],
            [
              6.108301,
              50.094238
            ],
            [
              6.109766,
              50.034375
            ],
            [
              6.138184,
              49.974316
            ],
            [
              6.204883,
              49.915137
            ],
            [
              6.256055,
              49.872168
            ],
            [
              6.324609,
              49.837891
            ],
            [
              6.440918,
              49.805322
            ],
            [
              6.487305,
              49.798486
            ],
            [
              6.49375,
              49.754395
            ],
            [
              6.484766,
              49.707812
            ],
            [
              6.444629,
              49.682031
            ],
            [
              6.406738,
              49.644971
            ],
            [
              6.37832,
              49.599609
            ],
            [
              6.348438,
              49.512695
            ],
            [
              6.344336,
              49.452734
            ],
            [
              6.382227,
              49.458154
            ],
            [
              6.458105,
              49.442871
            ],
            [
              6.534277,
              49.394678
            ],
            [
              6.566309,
              49.346191
            ],
            [
              6.574707,
              49.319678
            ],
            [
              6.607617,
              49.290869
            ],
            [
              6.735449,
              49.160596
            ],
            [
              6.77627,
              49.15415
            ],
            [
              6.820703,
              49.173926
            ],
            [
              6.849512,
              49.201953
            ],
            [
              6.891211,
              49.20752
            ],
            [
              6.958301,
              49.194629
            ],
            [
              7.001465,
              49.179883
            ],
            [
              7.022168,
              49.123437
            ],
            [
              7.036719,
              49.112695
            ],
            [
              7.065723,
              49.124854
            ],
            [
              7.117383,
              49.127539
            ],
            [
              7.199902,
              49.113623
            ],
            [
              7.313379,
              49.129541
            ],
            [
              7.404199,
              49.153076
            ],
            [
              7.450586,
              49.152197
            ],
            [
              7.525488,
              49.086377
            ],
            [
              7.610938,
              49.061768
            ],
            [
              7.799219,
              49.041895
            ],
            [
              8.00127,
              49.010937
            ],
            [
              8.080664,
              48.985889
            ],
            [
              8.134863,
              48.973584
            ],
            [
              8.140332,
              48.886426
            ],
            [
              8.124023,
              48.873291
            ],
            [
              7.922754,
              48.698535
            ],
            [
              7.837988,
              48.636035
            ],
            [
              7.794824,
              48.546826
            ],
            [
              7.765137,
              48.41001
            ],
            [
              7.705664,
              48.280029
            ],
            [
              7.616602,
              48.156787
            ],
            [
              7.58418,
              48.064307
            ],
            [
              7.608496,
              48.002588
            ],
            [
              7.593262,
              47.905664
            ],
            [
              7.538574,
              47.773633
            ],
            [
              7.529395,
              47.673877
            ],
            [
              7.56543,
              47.606543
            ],
            [
              7.615625,
              47.592725
            ],
            [
              7.698047,
              47.569873
            ],
            [
              7.927051,
              47.563867
            ],
            [
              8.09375,
              47.576172
            ],
            [
              8.198242,
              47.606934
            ],
            [
              8.327832,
              47.606934
            ],
            [
              8.414746,
              47.5896
            ],
            [
              8.430078,
              47.592139
            ],
            [
              8.454004,
              47.596191
            ],
            [
              8.477637,
              47.612695
            ],
            [
              8.559473,
              47.624023
            ],
            [
              8.570508,
              47.637793
            ],
            [
              8.56709,
              47.651904
            ],
            [
              8.552344,
              47.659131
            ],
            [
              8.451758,
              47.651807
            ],
            [
              8.413281,
              47.662695
            ],
            [
              8.403418,
              47.687793
            ],
            [
              8.435742,
              47.731348
            ],
            [
              8.509863,
              47.766895
            ],
            [
              8.572656,
              47.775635
            ],
            [
              8.617871,
              47.766113
            ],
            [
              8.72832,
              47.700049
            ],
            [
              8.754785,
              47.698047
            ],
            [
              8.770117,
              47.709912
            ],
            [
              8.793066,
              47.716553
            ],
            [
              8.831152,
              47.703613
            ],
            [
              8.874023,
              47.662695
            ],
            [
              8.881152,
              47.656396
            ],
            [
              9.127539,
              47.670703
            ],
            [
              9.182813,
              47.670703
            ],
            [
              9.35,
              47.598926
            ],
            [
              9.524023,
              47.524219
            ],
            [
              9.554395,
              47.511133
            ],
            [
              9.625879,
              47.467041
            ],
            [
              9.609082,
              47.391797
            ],
            [
              9.527539,
              47.270752
            ],
            [
              9.484277,
              47.172656
            ],
            [
              9.479492,
              47.09751
            ],
            [
              9.487695,
              47.062256
            ],
            [
              9.502344,
              47.062744
            ],
            [
              9.580273,
              47.057373
            ],
            [
              9.619922,
              47.057471
            ],
            [
              9.74502,
              47.037109
            ],
            [
              9.845313,
              47.007373
            ],
            [
              9.864648,
              46.975977
            ],
            [
              9.877734,
              46.937695
            ],
            [
              9.996875,
              46.885352
            ],
            [
              10.133496,
              46.851514
            ],
            [
              10.179785,
              46.862354
            ],
            [
              10.349414,
              46.984766
            ],
            [
              10.414941,
              46.964404
            ],
            [
              10.45459,
              46.899414
            ],
            [
              10.452832,
              46.864941
            ],
            [
              10.479395,
              46.855127
            ],
            [
              10.579785,
              46.853711
            ],
            [
              10.689258,
              46.846387
            ],
            [
              10.759766,
              46.793311
            ],
            [
              10.828906,
              46.775244
            ],
            [
              10.927344,
              46.769482
            ],
            [
              10.993262,
              46.777002
            ],
            [
              11.025098,
              46.796973
            ],
            [
              11.063477,
              46.859131
            ],
            [
              11.133887,
              46.936182
            ],
            [
              11.244434,
              46.975684
            ],
            [
              11.433203,
              46.983057
            ],
            [
              11.527539,
              46.997412
            ],
            [
              11.625488,
              46.996582
            ],
            [
              11.699414,
              46.984668
            ],
            [
              11.775684,
              46.986084
            ],
            [
              11.969531,
              47.039697
            ],
            [
              12.169434,
              47.082129
            ],
            [
              12.197168,
              47.075
            ],
            [
              12.20127,
              47.060889
            ],
            [
              12.165527,
              47.028174
            ],
            [
              12.130762,
              46.984766
            ],
            [
              12.154102,
              46.935254
            ],
            [
              12.267969,
              46.835889
            ],
            [
              12.330078,
              46.759814
            ],
            [
              12.388281,
              46.702637
            ],
            [
              12.479199,
              46.67251
            ],
            [
              12.598633,
              46.654102
            ],
            [
              12.642522071255327,
              46.65122109103105
            ],
            [
              14.0625,
              46.987279
            ],
            [
              16.875,
              48.986976
            ],
            [
              18.632813,
              50.40808
            ],
            [
              18.676758,
              52.355054
            ],
            [
              16.655273,
              53.858602
            ],
            [
              14.557078711511139,
              53.72512744142285
            ],
            [
              14.552148,
              53.707324
            ],
            [
              14.571582,
              53.675879
            ],
            [
              14.583496,
              53.639355
            ],
            [
              14.487598,
              53.671875
            ],
            [
              14.333151441500187,
              53.71088252917517
            ],
            [
              12.568359,
              53.598617
            ],
            [
              7.954102,
              52.835543
            ],
            [
              7.031421284577205,
              52.3254658929432
            ],
            [
              7.019629,
              52.266016
            ],
            [
              6.977246,
              52.205518
            ],
            [
              6.855078,
              52.135791
            ],
            [
              6.800391,
              52.11123
            ],
            [
              6.749023,
              52.098682
            ],
            [
              6.724512,
              52.080225
            ],
            [
              6.712988,
              52.056885
            ],
            [
              6.715625,
              52.036182
            ],
            [
              6.802441,
              51.980176
            ],
            [
              6.800391,
              51.967383
            ],
            [
              6.775195,
              51.938281
            ],
            [
              6.741797,
              51.910889
            ],
            [
              6.517578,
              51.853955
            ],
            [
              6.425,
              51.858398
            ],
            [
              6.372168,
              51.830029
            ],
            [
              6.355664,
              51.824658
            ],
            [
              6.29707,
              51.850732
            ],
            [
              6.209221880301925,
              51.870936946421985
            ],
            [
              5.9714539131689035,
              51.73949386454245
            ],
            [
              6.052734,
              51.658252
            ],
            [
              6.089355,
              51.637793
            ],
            [
              6.091113,
              51.598926
            ],
            [
              6.141602,
              51.550098
            ],
            [
              6.193262,
              51.488916
            ],
            [
              6.198828,
              51.45
            ],
            [
              6.192871,
              51.410596
            ],
            [
              6.166211,
              51.354834
            ],
            [
              6.075879,
              51.224121
            ],
            [
              6.074805,
              51.199023
            ],
            [
              6.082422,
              51.17998
            ],
            [
              6.113379,
              51.174707
            ],
            [
              6.136914,
              51.164844
            ],
            [
              6.12998,
              51.147412
            ],
            [
              5.961035,
              51.056689
            ],
            [
              5.939258,
              51.04082
            ],
            [
              5.868359,
              51.045312
            ],
            [
              5.85752,
              51.030127
            ]
          ]
        ]
      }
    }
  ]
}