{
  "type": "FeatureCollection",
  "features": [
    {
      "type": "Feature",
      "properties": {
        "kind": "outlook",
        "hazard": "tornado",
        "title": "",
        "description": "",
        "probability": "marginal",
        "intensity": "",
        "riskLabel": "Marginal Tornado Potential",
        "hazardProbability": "marginal",
        "hatched": false,
        "doubleHatch": false
      },
      "geometry": {
        "type": "Polygon",
        "coordinates": [
          [
            [
              17.63962307330532,
              54.786197198485766
            ],
            [
              18.28125,
              54.039635
            ],
            [
              19.467773,
              53.494173
            ],
            [
              20.961914,
              53.441855
            ],
            [
              22.368164,
              53.832675
            ],
            [
              22.697752896076313,
              54.3506887595239
            ],
            [
              22.168457,
              54.359863
            ],
            [
              21.63418,
              54.376465
            ],
            [
              21.140527,
              54.391797
            ],
            [
              20.664746,
              54.406641
            ],
            [
              20.208203,
              54.420752
            ],
            [
              19.924316,
              54.433984
            ],
            [
              19.644238,
              54.44707
            ],
            [
              19.604395,
              54.45918
            ],
            [
              19.560156,
              54.434619
            ],
            [
              19.407129,
              54.386084
            ],
            [
              18.97627,
              54.348926
            ],
            [
              18.836426,
              54.36958
            ],
            [
              18.669629,
              54.430908
            ],
            [
              18.587109,
              54.512891
            ],
            [
              18.43623,
              54.744727
            ],
            [
              18.501563,
              54.741504
            ],
            [
              18.67832,
              54.665283
            ],
            [
              18.799609,
              54.63335
            ],
            [
              18.759277,
              54.68457
            ],
            [
              18.535156,
              54.769434
            ],
            [
              18.323438,
              54.838184
            ],
            [
              18.085645,
              54.83584
            ],
            [
              17.842969,
              54.816699
            ],
            [
              17.63962307330532,
              54.786197198485766
            ]
          ]
        ]
      }
    }
  ]
}