{
  "type": "FeatureCollection",
  "features": [
    {
      "type": "Feature",
      "properties": {
        "kind": "outlook",
        "hazard": "hail",
        "title": "",
        "description": "",
        "probability": "2",
        "intensity": "",
        "riskLabel": "2%",
        "hazardProbability": "2",
        "hatched": false,
        "doubleHatch": false
      },
      "geometry": {
        "type": "Polygon",
        "coordinates": [
          [
            [
              7.529395,
              47.673877
            ],
            [
              7.56543,
              47.606543
            ],
            [
              7.615625,
              47.592725
            ],
            [
              7.698047,
              47.569873
            ],
            [
              7.927051,
              47.563867
            ],
            [
              8.09375,
              47.576172
            ],
            [
              8.198242,
              47.606934
            ],
            [
              8.327832,
              47.606934
            ],
            [
              8.414746,
              47.5896
            ],
            [
              8.430078,
              47.592139
            ],
            [
              8.454004,
              47.596191
            ],
            [
              8.477637,
              47.612695
            ],
            [
              8.559473,
              47.624023
            ],
            [
              8.570508,
              47.637793
            ],
            [
              8.56709,
              47.651904
            ],
            [
              8.552344,
              47.659131
            ],
            [
              8.451758,
              47.651807
            ],
            [
              8.413281,
              47.662695
            ],
            [
              8.403418,
              47.687793
            ],
            [
              8.435742,
              47.731348
            ],
            [
              8.509863,
              47.766895
            ],
            [
              8.572656,
              47.775635
            ],
            [
              8.617871,
              47.766113
            ],
            [
              8.72832,
              47.700049
            ],
            [
              8.754785,
              47.698047
            ],
            [
              8.770117,
              47.709912
            ],
            [
              8.793066,
              47.716553
            ],
            [
              8.831152,
              47.703613
            ],
            [
              8.874023,
              47.662695
            ],
            [
              8.881152,
              47.656396
            ],
            [
              9.127539,
              47.670703
            ],
            [
              9.182813,
              47.670703
            ],
            [
              9.35,
              47.598926
            ],
            [
              9.524023,
              47.524219
            ],
            [
              9.554395,
              47.511133
            ],
            [
              9.625879,
              47.467041
            ],
            [
              9.609082,
              47.391797
            ],
            [
              9.527539,
              47.270752
            ],
            [
              9.484277,
              47.172656
            ],
            [
              9.479492,
              47.09751
            ],
            [
              9.487695,
              47.062256
            ],
            [
              9.502344,
              47.062744
            ],
            [
              9.580273,
              47.057373
            ],
            [
              9.619922,
              47.057471
            ],
            [
              9.74502,
              47.037109
            ],
            [
              9.845313,
              47.007373
            ],
            [
              9.864648,
              46.975977
            ],
            [
              9.877734,
              46.937695
            ],
            [
              9.996875,
              46.885352
            ],
            [
              10.133496,
              46.851514
            ],
            [
              10.179785,
              46.862354
            ],
            [
              10.349414,
              46.984766
            ],
            [
              10.414941,
              46.964404
            ],
            [
              10.45459,
              46.899414
            ],
            [
              10.452832,
              46.864941
            ],
            [
              10.479395,
              46.855127
            ],
            [
              10.579785,
              46.853711
            ],
            [
              10.689258,
              46.846387
            ],
            [
              10.759766,
              46.793311
            ],
            [
              10.828906,
              46.775244
            ],
            [
              10.927344,
              46.769482
            ],
            [
              10.993262,
              46.777002
            ],
            [
              11.025098,
              46.796973
            ],
            [
              11.063477,
              46.859131
            ],
            [
              11.133887,
              46.936182
            ],
            [
              11.244434,
              46.975684
            ],
            [
              11.433203,
              46.983057
            ],
            [
              11.527539,
              46.997412
            ],
            [
              11.625488,
              46.996582
            ],
            [
              11.699414,
              46.984668
            ],
            [
              11.775684,
              46.986084
            ],
            [
              11.969531,
              47.039697
            ],
            [
              12.169434,
              47.082129
            ],
            [
              12.197168,
              47.075
            ],
            [
              12.20127,
              47.060889
            ],
            [
              12.165527,
              47.028174
            ],
            [
              12.133008645198846,
              46.98757118840188
            ],
            [
              14.194336,
              47.37557
            ],
            [
              15.732422,
              47.967399
            ],
            [
              16.040039,
              49.015806
            ],
            [
              15.600586,
              49.588903
            ],
            [
              14.194336,
              49.702724
            ],
            [
              12.612305,
              49.389078
            ],
            [
              10.50293,
              48.639715
            ],
            [
              7.584772054280015,
              48.0628042446904
            ],
            [
              7.608496,
              48.002588
            ],
            [
              7.593262,
              47.905664
            ],
            [
              7.538574,
              47.773633
            ],
            [
              7.529395,
              47.673877
            ]
          ]
        ]
      }
    }
  ]
}