{
  "type": "FeatureCollection",
  "features": [
    {
      "type": "Feature",
      "properties": {
        "kind": "outlook",
        "hazard": "wind",
        "title": "",
        "description": "",
        "probability": "2",
        "intensity": "",
        "riskLabel": "2%",
        "hazardProbability": "2",
        "hatched": false,
        "doubleHatch": false
      },
      "geometry": {
        "type": "Polygon",
        "coordinates": [
          [
            [
              7.529395,
              47.673877
            ],
            [
              7.56543,
              47.606543
            ],
            [
              7.615625,
              47.592725
            ],
            [
              7.698047,
              47.569873
            ],
            [
              7.927051,
              47.563867
            ],
            [
              8.09375,
              47.576172
            ],
            [
              8.198242,
              47.606934
            ],
            [
              8.327832,
              47.606934
            ],
            [
              8.414746,
              47.5896
            ],
            [
              8.430078,
              47.592139
            ],
            [
              8.454004,
              47.596191
            ],
            [
              8.477637,
              47.612695
            ],
            [
              8.559473,
              47.624023
            ],
            [
              8.570508,
              47.637793
            ],
            [
              8.56709,
              47.651904
            ],
            [
              8.552344,
              47.659131
            ],
            [
              8.451758,
              47.651807
            ],
            [
              8.413281,
              47.662695
            ],
            [
              8.403418,
              47.687793
            ],
            [
              8.435742,
              47.731348
            ],
            [
              8.509863,
              47.766895
            ],
            [
              8.572656,
              47.775635
            ],
            [
              8.617871,
              47.766113
            ],
            [
              8.72832,
              47.700049
            ],
            [
              8.754785,
              47.698047
            ],
            [
              8.770117,
              47.709912
            ],
            [
              8.793066,
              47.716553
            ],
            [
              8.831152,
              47.703613
            ],
            [
              8.874023,
              47.662695
            ],
            [
              8.881152,
              47.656396
            ],
            [
              9.127539,
              47.670703
            ],
            [
              9.182813,
              47.670703
            ],
            [
              9.35,
              47.598926
            ],
            [
              9.524023,
              47.524219
            ],
            [
              9.554395,
              47.511133
            ],
            [
              9.625879,
              47.467041
            ],
            [
              9.609082,
              47.391797
            ],
            [
              9.527539,
              47.270752
            ],
            [
              9.484277,
              47.172656
            ],
            [
              9.479492,
              47.09751
            ],
            [
              9.487695,
              47.062256
            ],
            [
              9.502344,
              47.062744
            ],
            [
              9.580273,
              47.057373
            ],
            [
              9.619922,
              47.057471
            ],
            [
              9.74502,
              47.037109
            ],
            [
              9.845313,
              47.007373
            ],
            [
              9.864648,
              46.975977
            ],
            [
              9.867174174277407,
              46.96858688814858
            ],
            [
              11.25,
              47.107055
            ],
            [
              15.073242,
              47.405321
            ],
            [
              17.929688,
              47.84957
            ],
            [
              22.280273,
              48.726756
            ],
            [
              22.33085312817735,
              48.74227481780889
            ],
            [
              22.332617,
              48.745068
            ],
            [
              22.389453,
              48.873486
            ],
            [
              22.432031,
              48.933545
            ],
            [
              22.483203,
              48.983252
            ],
            [
              22.524121,
              49.031396
            ],
            [
              22.538672,
              49.072705
            ],
            [
              22.57998,
              49.077197
            ],
            [
              22.70127,
              49.039941
            ],
            [
              22.809766,
              49.020752
            ],
            [
              22.839746,
              49.038916
            ],
            [
              22.852051,
              49.062744
            ],
            [
              22.84707,
              49.08125
            ],
            [
              22.760156,
              49.13623
            ],
            [
              22.705664,
              49.171191
            ],
            [
              22.702344,
              49.192725
            ],
            [
              22.721973,
              49.240967
            ],
            [
              22.732422,
              49.295166
            ],
            [
              22.719922,
              49.353809
            ],
            [
              22.660645,
              49.483691
            ],
            [
              22.649414,
              49.539014
            ],
            [
              22.706152,
              49.606201
            ],
            [
              22.890723,
              49.76626
            ],
            [
              22.952246,
              49.826367
            ],
            [
              23.036328,
              49.899072
            ],
            [
              23.264453,
              50.072852
            ],
            [
              23.408594,
              50.173926
            ],
            [
              23.506152,
              50.229834
            ],
            [
              23.649023,
              50.327051
            ],
            [
              23.711719,
              50.377344
            ],
            [
              23.972656,
              50.410059
            ],
            [
              24.00498,
              50.457031
            ],
            [
              24.052637,
              50.508447
            ],
            [
              24.089941,
              50.530469
            ],
            [
              24.094727,
              50.617041
            ],
            [
              24.046289,
              50.722803
            ],
            [
              24.007324,
              50.760156
            ],
            [
              23.978418,
              50.785596
            ],
            [
              23.99707,
              50.809375
            ],
            [
              24.025977,
              50.816162
            ],
            [
              24.061621,
              50.819531
            ],
            [
              24.105762,
              50.844971
            ],
            [
              24.095801,
              50.872754
            ],
            [
              23.985742,
              50.94043
            ],
            [
              23.938086,
              50.992529
            ],
            [
              23.863477,
              51.126221
            ],
            [
              23.732009078903165,
              51.24695212796383
            ],
            [
              22.060547,
              51.158246
            ],
            [
              19.6875,
              50.295919
            ],
            [
              16.171875,
              49.702724
            ],
            [
              14.238281,
              49.303188
            ],
            [
              11.99707,
              49.102196
            ],
            [
              9.711914,
              48.813646
            ],
            [
              7.799702477743788,
              48.55690857161166
            ],
            [
              7.794824,
              48.546826
            ],
            [
              7.765137,
              48.41001
            ],
            [
              7.705664,
              48.280029
            ],
            [
              7.616602,
              48.156787
            ],
            [
              7.58418,
              48.064307
            ],
            [
              7.608496,
              48.002588
            ],
            [
              7.593262,
              47.905664
            ],
            [
              7.538574,
              47.773633
            ],
            [
              7.529395,
              47.673877
            ]
          ]
        ]
      }
    }
  ]
}